{"type":"Topology","transform":{"scale":[0.000032151585158515844,0.00001483769376937693],"translate":[-4.3932006,55.7812767]},"objects":{"glasgow":{"type":"GeometryCollection","crs":{"type":"name","properties":{"name":"urn:ogc:def:crs:OGC:1.3:CRS84"}},"geometries":[{"type":"Polygon","arcs":[[0,1,2,3,4]],"id":"Glasgow City","properties":{"osm_id":-1906767}}]},"IbroxArea":{"type":"GeometryCollection","crs":{"type":"name","properties":{"name":"urn:ogc:def:crs:OGC:1.3:CRS84"}},"geometries":[{"type":"LineString","arcs":[5],"id":"Shieldhall Road","properties":{"osm_id":1877,"highway":"primary"}},{"type":"LineString","arcs":[6,7],"id":"Shieldhall Road","properties":{"osm_id":16191472,"highway":"primary"}},{"type":"LineString","arcs":[8,9],"id":"Paisley Road West","properties":{"osm_id":8147174,"highway":"primary"}},{"type":"LineString","arcs":[10,11],"id":"Paisley Road West","properties":{"osm_id":202716187,"highway":"primary"}},{"type":"LineString","arcs":[12],"id":"Bunessan Street","properties":{"osm_id":8015456,"highway":"residential"}},{"type":"LineString","arcs":[13],"properties":{"osm_id":33912746,"highway":"motorway_link"}},{"type":"LineString","arcs":[14,15],"properties":{"osm_id":119028146,"highway":"motorway"}},{"type":"LineString","arcs":[16,17],"properties":{"osm_id":4853094,"highway":"motorway_link"}},{"type":"LineString","arcs":[18,19],"properties":{"osm_id":133476074,"highway":"footway"}},{"type":"LineString","arcs":[20],"properties":{"osm_id":133476052,"highway":"service"}},{"type":"LineString","arcs":[21],"properties":{"osm_id":24678373,"highway":"footway"}},{"type":"LineString","arcs":[22,23],"properties":{"osm_id":200051860,"highway":"motorway"}},{"type":"LineString","arcs":[24],"id":"Salen Street","properties":{"osm_id":8015457,"highway":"residential"}},{"type":"LineString","arcs":[25],"id":"Cults Street","properties":{"osm_id":11632075,"highway":"residential"}},{"type":"LineString","arcs":[26],"properties":{"osm_id":133552651,"highway":"service"}},{"type":"LineString","arcs":[27,28],"id":"Tarland Street","properties":{"osm_id":11632074,"highway":"residential"}},{"type":"LineString","arcs":[29,30],"properties":{"osm_id":11632072,"highway":"service"}},{"type":"LineString","arcs":[31],"properties":{"osm_id":133552710,"highway":"service"}},{"type":"LineString","arcs":[32,33,34],"properties":{"osm_id":11632073,"highway":"service"}},{"type":"LineString","arcs":[35,36],"properties":{"osm_id":133386719,"highway":"footway"}},{"type":"LineString","arcs":[37,38,39,40],"properties":{"osm_id":133476081,"highway":"service"}},{"type":"LineString","arcs":[41],"properties":{"osm_id":133476072,"highway":"service"}},{"type":"LineString","arcs":[42],"properties":{"osm_id":133476059,"highway":"service"}},{"type":"LineString","arcs":[43],"properties":{"osm_id":133386720,"highway":"footway"}},{"type":"LineString","arcs":[44,45,46,47,48],"properties":{"osm_id":133386840,"highway":"footway"}},{"type":"LineString","arcs":[49],"properties":{"osm_id":133386768,"highway":"footway"}},{"type":"LineString","arcs":[50,51],"properties":{"osm_id":203921915,"highway":"service"}},{"type":"LineString","arcs":[52],"properties":{"osm_id":133476064,"highway":"service"}},{"type":"LineString","arcs":[53],"properties":{"osm_id":203921916,"highway":"service"}},{"type":"LineString","arcs":[54],"properties":{"osm_id":133386711,"highway":"service"}},{"type":"LineString","arcs":[55,56,57],"properties":{"osm_id":203921911,"highway":"service"}},{"type":"LineString","arcs":[58],"properties":{"osm_id":203921912,"highway":"service"}},{"type":"LineString","arcs":[59,60],"properties":{"osm_id":33912747,"highway":"service"}},{"type":"LineString","arcs":[61],"properties":{"osm_id":203922647,"highway":"footway"}},{"type":"LineString","arcs":[62],"properties":{"osm_id":133552642,"highway":"service"}},{"type":"LineString","arcs":[63],"properties":{"osm_id":133386801,"highway":"footway"}},{"type":"LineString","arcs":[64],"id":"Aboyne Street","properties":{"osm_id":11632078,"highway":"residential"}},{"type":"LineString","arcs":[65,66,67,68],"properties":{"osm_id":133552669,"highway":"service"}},{"type":"LineString","arcs":[69],"properties":{"osm_id":133386821,"highway":"footway"}},{"type":"LineString","arcs":[70,71],"id":"Helen Street","properties":{"osm_id":8015458,"highway":"residential"}},{"type":"LineString","arcs":[72],"properties":{"osm_id":133476076,"highway":"service"}},{"type":"LineString","arcs":[73],"id":"Paisley Road West","properties":{"osm_id":33340755,"highway":"primary"}},{"type":"LineString","arcs":[74],"properties":{"osm_id":142414215,"highway":"motorway_link"}},{"type":"LineString","arcs":[75],"properties":{"osm_id":35067258,"highway":"cycleway"}},{"type":"LineString","arcs":[76],"properties":{"osm_id":203922646,"highway":"primary"}},{"type":"LineString","arcs":[77],"properties":{"osm_id":203922649,"highway":"primary"}},{"type":"LineString","arcs":[78,79,80,81],"properties":{"osm_id":133476058,"highway":"footway"}},{"type":"LineString","arcs":[82],"properties":{"osm_id":203922648,"highway":"primary"}},{"type":"LineString","arcs":[83],"properties":{"osm_id":203922642,"highway":"primary"}},{"type":"LineString","arcs":[84,85,86],"id":"Helen Street","properties":{"osm_id":4717435,"highway":"primary"}},{"type":"LineString","arcs":[87],"properties":{"osm_id":133552746,"highway":"footway"}},{"type":"MultiLineString","arcs":[[88],[89,90],[91],[92],[93],[94,95],[96,97],[98]],"properties":{"osm_id":133476056,"highway":"service"}},{"type":"LineString","arcs":[99],"properties":{"osm_id":142414214,"highway":"primary"}},{"type":"LineString","arcs":[100],"properties":{"osm_id":8151843,"highway":"primary"}},{"type":"LineString","arcs":[101,102],"properties":{"osm_id":133476061,"highway":"footway"}},{"type":"LineString","arcs":[103,104],"id":"Helen Street","properties":{"osm_id":4717438,"highway":"primary"}},{"type":"LineString","arcs":[105,106],"id":"Loanbank Quadrant","properties":{"osm_id":10750732,"highway":"unclassified"}},{"type":"LineString","arcs":[107,108,109],"id":"Helen Street","properties":{"osm_id":4717436,"highway":"primary"}},{"type":"LineString","arcs":[110,111],"properties":{"osm_id":33340754,"highway":"motorway_link"}},{"type":"LineString","arcs":[112],"properties":{"osm_id":203922644,"highway":"primary"}},{"type":"LineString","arcs":[113],"properties":{"osm_id":142414216,"highway":"motorway_link"}},{"type":"LineString","arcs":[114],"properties":{"osm_id":70315493,"highway":"primary"}},{"type":"LineString","arcs":[115],"properties":{"osm_id":4648615,"highway":"primary"}},{"type":"LineString","arcs":[116,117,118,119,120],"id":"Paisley Road West","properties":{"osm_id":4981583,"highway":"primary"}},{"type":"LineString","arcs":[121,122,123],"id":"Helen Street","properties":{"osm_id":203921913,"highway":"primary"}},{"type":"LineString","arcs":[124],"properties":{"osm_id":70315497,"highway":"motorway_link"}},{"type":"LineString","arcs":[125],"id":"Paisley Road West","properties":{"osm_id":4981562,"highway":"primary"}},{"type":"LineString","arcs":[126,127,128],"properties":{"osm_id":133476063,"highway":"unclassified"}},{"type":"LineString","arcs":[129],"properties":{"osm_id":203921093,"highway":"service"}},{"type":"LineString","arcs":[130,131,132,133,134],"id":"Helen Street","properties":{"osm_id":203921914,"highway":"primary"}},{"type":"LineString","arcs":[135],"properties":{"osm_id":133476078,"highway":"service"}},{"type":"LineString","arcs":[136,137,138,139,140],"properties":{"osm_id":22883522,"highway":"service"}},{"type":"LineString","arcs":[141,142,143],"id":"Helen Street","properties":{"osm_id":4717439,"highway":"primary"}},{"type":"LineString","arcs":[144],"properties":{"osm_id":106089814,"highway":"service"}},{"type":"LineString","arcs":[145],"properties":{"osm_id":24678387,"highway":"footway"}},{"type":"LineString","arcs":[146],"properties":{"osm_id":26722453,"highway":"service"}},{"type":"LineString","arcs":[147],"properties":{"osm_id":129857725,"highway":"service"}},{"type":"LineString","arcs":[148],"properties":{"osm_id":106089789,"highway":"service"}},{"type":"LineString","arcs":[149],"properties":{"osm_id":129857715,"highway":"service"}},{"type":"LineString","arcs":[150],"properties":{"osm_id":129857729,"highway":"service"}},{"type":"LineString","arcs":[151,152],"id":"Birkmyre Road","properties":{"osm_id":10750731,"highway":"unclassified"}},{"type":"LineString","arcs":[153,154,155,156,157,158,159,160],"properties":{"osm_id":2089,"highway":"primary"}},{"type":"LineString","arcs":[161],"id":"Helen Street","properties":{"osm_id":142414427,"highway":"tertiary"}},{"type":"LineString","arcs":[162],"id":"Birkmyre Road","properties":{"osm_id":10750729,"highway":"unclassified"}},{"type":"LineString","arcs":[163],"id":"Helen Street","properties":{"osm_id":142414424,"highway":"tertiary"}},{"type":"LineString","arcs":[164,165,166,167],"id":"Helen Street","properties":{"osm_id":8227652,"highway":"tertiary"}},{"type":"LineString","arcs":[168,169],"id":"Edmiston Drive","properties":{"osm_id":1876,"highway":"primary"}},{"type":"LineString","arcs":[170],"id":"Edmiston Drive","properties":{"osm_id":16362081,"highway":"primary"}},{"type":"LineString","arcs":[171,172],"properties":{"osm_id":24694624,"highway":"footway"}},{"type":"LineString","arcs":[173],"properties":{"osm_id":129857716,"highway":"service"}},{"type":"LineString","arcs":[174,175],"properties":{"osm_id":22883523,"highway":"pedestrian"}},{"type":"LineString","arcs":[176],"properties":{"osm_id":133386685,"highway":"service"}},{"type":"LineString","arcs":[177],"properties":{"osm_id":10750734,"highway":"service"}},{"type":"LineString","arcs":[178,179,180],"properties":{"osm_id":26962516,"highway":"pedestrian"}},{"type":"LineString","arcs":[181,182],"properties":{"osm_id":219354816,"highway":"service"}},{"type":"LineString","arcs":[183,184],"properties":{"osm_id":219354819,"highway":"service"}},{"type":"LineString","arcs":[185,186,187,188],"properties":{"osm_id":219354796,"highway":"service"}},{"type":"LineString","arcs":[189,190,191],"properties":{"osm_id":219354821,"highway":"service"}},{"type":"LineString","arcs":[192,193],"properties":{"osm_id":219354820,"highway":"service"}},{"type":"LineString","arcs":[194,195,196],"properties":{"osm_id":219354829,"highway":"service"}},{"type":"LineString","arcs":[197,198,199],"properties":{"osm_id":219354826,"highway":"service"}},{"type":"LineString","arcs":[200,201],"properties":{"osm_id":26962567,"highway":"footway"}},{"type":"LineString","arcs":[202,203,204],"properties":{"osm_id":219354824,"highway":"service"}},{"type":"LineString","arcs":[205,206,207],"properties":{"osm_id":219354828,"highway":"service"}},{"type":"LineString","arcs":[208,209,210],"properties":{"osm_id":219354827,"highway":"service"}},{"type":"LineString","arcs":[211,212,213],"properties":{"osm_id":219355448,"highway":"service"}},{"type":"LineString","arcs":[214,215,216,217,218,219,220,221,222,223,224,225],"properties":{"osm_id":219354797,"highway":"service"}},{"type":"LineString","arcs":[226],"properties":{"osm_id":24710218,"highway":"service"}},{"type":"LineString","arcs":[227],"properties":{"osm_id":8150801,"highway":"primary"}},{"type":"LineString","arcs":[228,229],"properties":{"osm_id":4681688,"highway":"primary"}},{"type":"LineString","arcs":[230],"properties":{"osm_id":24694643,"highway":"footway"}},{"type":"LineString","arcs":[231,232,233],"properties":{"osm_id":133386735,"highway":"service"}},{"type":"LineString","arcs":[234],"properties":{"osm_id":133386706,"highway":"service"}},{"type":"LineString","arcs":[235],"properties":{"osm_id":219354798,"highway":"service"}},{"type":"LineString","arcs":[236,237,238,239],"properties":{"osm_id":219354835,"highway":"service"}},{"type":"LineString","arcs":[240,241,242,243,244,245],"properties":{"osm_id":219354833,"highway":"service"}},{"type":"LineString","arcs":[246],"id":"Orton Place","properties":{"osm_id":81878750,"highway":"unclassified"}},{"type":"LineString","arcs":[247,248],"properties":{"osm_id":8073119,"highway":"service"}},{"type":"LineString","arcs":[249,250,251,252,253,254,255],"properties":{"osm_id":2090,"highway":"primary"}},{"type":"LineString","arcs":[256,257],"properties":{"osm_id":133386695,"highway":"service"}},{"type":"LineString","arcs":[258,259,260],"id":"Broomloan Road","properties":{"osm_id":82101196,"highway":"secondary"}},{"type":"LineString","arcs":[261],"id":"Paisley Road West","properties":{"osm_id":4648616,"highway":"primary"}},{"type":"MultiLineString","arcs":[[262],[263]],"properties":{"osm_id":133386679,"highway":"service"}},{"type":"LineString","arcs":[264,265],"id":"Orton Place","properties":{"osm_id":81878837,"highway":"unclassified"}},{"type":"LineString","arcs":[266,267,268,269,270,271,272],"id":"Broomloan Road","properties":{"osm_id":4688522,"highway":"tertiary"}},{"type":"LineString","arcs":[273,274,275,276],"id":"Broomloan Road","properties":{"osm_id":45049556,"highway":"secondary"}},{"type":"LineString","arcs":[277],"id":"Paisley Road West","properties":{"osm_id":45049559,"highway":"primary"}},{"type":"LineString","arcs":[278],"properties":{"osm_id":219354898,"highway":"footway"}},{"type":"LineString","arcs":[279,280,281],"id":"Edmiston Drive","properties":{"osm_id":204735907,"highway":"primary"}},{"type":"LineString","arcs":[282,283,284,285,286],"id":"Edmiston Drive","properties":{"osm_id":8029406,"highway":"primary"}},{"type":"LineString","arcs":[287,288,289,290,291,292],"id":"Hinshelwood Drive","properties":{"osm_id":26722464,"highway":"residential"}},{"type":"LineString","arcs":[293],"properties":{"osm_id":47463094,"highway":"footway"}},{"type":"LineString","arcs":[294,295,296],"id":"Ardo Gardens","properties":{"osm_id":8029407,"highway":"residential"}},{"type":"LineString","arcs":[297,298,299],"properties":{"osm_id":219354834,"highway":"service"}},{"type":"LineString","arcs":[300],"properties":{"osm_id":219354817,"highway":"service"}},{"type":"LineString","arcs":[301],"id":"Broomloan Road","properties":{"osm_id":8029409,"highway":"residential"}},{"type":"LineString","arcs":[302],"properties":{"osm_id":219354822,"highway":"service"}},{"type":"LineString","arcs":[303,304,305],"properties":{"osm_id":219354830,"highway":"service"}},{"type":"LineString","arcs":[306,307],"id":"Broomloan Place","properties":{"osm_id":81878829,"highway":"unclassified"}},{"type":"LineString","arcs":[308],"properties":{"osm_id":219354800,"highway":"service"}},{"type":"LineString","arcs":[309],"properties":{"osm_id":219354823,"highway":"service"}},{"type":"LineString","arcs":[310],"properties":{"osm_id":219354900,"highway":"footway"}},{"type":"LineString","arcs":[311,312,313,314,315,316,317,318,319,320,321],"properties":{"osm_id":8029305,"highway":"service"}},{"type":"LineString","arcs":[322],"properties":{"osm_id":4684702,"highway":"secondary"}},{"type":"LineString","arcs":[323],"id":"Paisley Road West","properties":{"osm_id":82101200,"highway":"primary"}},{"type":"LineString","arcs":[324],"properties":{"osm_id":219354807,"highway":"service"}},{"type":"LineString","arcs":[325],"id":"Dumbreck Road","properties":{"osm_id":97235946,"highway":"secondary"}},{"type":"LineString","arcs":[326],"id":"Paisley Road West","properties":{"osm_id":82101197,"highway":"primary"}},{"type":"LineString","arcs":[327],"properties":{"osm_id":4684704,"highway":"secondary"}},{"type":"LineString","arcs":[328],"properties":{"osm_id":26722458,"highway":"steps"}},{"type":"LineString","arcs":[329,330,331,332,333,334],"id":"Paisley Road West","properties":{"osm_id":45049557,"highway":"primary"}},{"type":"LineString","arcs":[335],"properties":{"osm_id":219354832,"highway":"footway"}},{"type":"LineString","arcs":[336],"properties":{"osm_id":219354810,"highway":"service"}},{"type":"LineString","arcs":[337],"id":"Dumbreck Road","properties":{"osm_id":82101198,"highway":"secondary"}},{"type":"LineString","arcs":[338],"id":"Paisley Road West","properties":{"osm_id":45049558,"highway":"primary"}},{"type":"LineString","arcs":[339],"id":"Paisley Road West","properties":{"osm_id":8029410,"highway":"residential"}},{"type":"LineString","arcs":[340],"properties":{"osm_id":106087335,"highway":"service"}},{"type":"LineString","arcs":[341],"id":"Dumbreck Road","properties":{"osm_id":4571965,"highway":"secondary"}},{"type":"LineString","arcs":[342,343,344,345,346,347,348,349],"id":"Woodville Street","properties":{"osm_id":4717450,"highway":"unclassified"}},{"type":"LineString","arcs":[350],"properties":{"osm_id":1762,"highway":"motorway_link"}},{"type":"LineString","arcs":[351],"id":"Dumbreck Road","properties":{"osm_id":4571968,"highway":"secondary"}},{"type":"LineString","arcs":[352,353,354],"id":"Paisley Road West","properties":{"osm_id":4681687,"highway":"primary"}},{"type":"LineString","arcs":[355],"id":"Dumbreck Road","properties":{"osm_id":97235949,"highway":"secondary"}},{"type":"LineString","arcs":[356],"id":"Dumbreck Road","properties":{"osm_id":8073877,"highway":"secondary"}},{"type":"LineString","arcs":[357,358],"id":"Dumbreck Road","properties":{"osm_id":4571963,"highway":"secondary"}},{"type":"LineString","arcs":[359,360,361],"properties":{"osm_id":47464630,"highway":"footway"}},{"type":"LineString","arcs":[362],"properties":{"osm_id":47464629,"highway":"secondary"}},{"type":"LineString","arcs":[363,364],"properties":{"osm_id":133476073,"highway":"service"}},{"type":"LineString","arcs":[365,366,367,368,369],"id":"Dumbreck Road","properties":{"osm_id":4571964,"highway":"secondary"}},{"type":"LineString","arcs":[370,371],"properties":{"osm_id":118830819,"highway":"motorway_link"}},{"type":"LineString","arcs":[372],"id":"Skene Road","properties":{"osm_id":4648617,"highway":"residential"}},{"type":"LineString","arcs":[373,374],"properties":{"osm_id":47464631,"highway":"motorway_link"}},{"type":"LineString","arcs":[375,376],"id":"Urrdale Road","properties":{"osm_id":4684701,"highway":"residential"}},{"type":"LineString","arcs":[377,378,379,380,381,382,383,384],"properties":{"osm_id":132544338,"highway":"service"}},{"type":"LineString","arcs":[385,386],"id":"Summertown Road","properties":{"osm_id":204735910,"highway":"residential"}},{"type":"LineString","arcs":[387],"properties":{"osm_id":4705650,"highway":"footway"}},{"type":"LineString","arcs":[388],"id":"Broomloan Place","properties":{"osm_id":81878834,"highway":"unclassified"}},{"type":"LineString","arcs":[389],"id":"Rowan Road","properties":{"osm_id":4705647,"highway":"residential"}},{"type":"LineString","arcs":[390],"properties":{"osm_id":133476066,"highway":"footway"}},{"type":"LineString","arcs":[391],"properties":{"osm_id":4648618,"highway":"footway"}},{"type":"LineString","arcs":[392,393,394,395,396,397],"id":"Kintra Street","properties":{"osm_id":8029056,"highway":"residential"}},{"type":"LineString","arcs":[398],"properties":{"osm_id":133476080,"highway":"footway"}},{"type":"LineString","arcs":[399],"properties":{"osm_id":132968016,"highway":"service"}},{"type":"LineString","arcs":[400],"id":"Urrdale Road","properties":{"osm_id":47464628,"highway":"residential"}},{"type":"LineString","arcs":[401,402],"id":"Woodville Park","properties":{"osm_id":81878770,"highway":"unclassified"}},{"type":"LineString","arcs":[403],"id":"Farm Road","properties":{"osm_id":82818923,"highway":"residential"}},{"type":"LineString","arcs":[404,405,406],"id":"Brighton Street","properties":{"osm_id":8029052,"highway":"residential"}},{"type":"LineString","arcs":[407],"id":"Rhynie Drive","properties":{"osm_id":8029411,"highway":"residential"}},{"type":"LineString","arcs":[408],"properties":{"osm_id":219354811,"highway":"service"}},{"type":"LineString","arcs":[409],"id":"Woodville Park","properties":{"osm_id":81878802,"highway":"unclassified"}},{"type":"LineString","arcs":[410,411],"id":"Columba Street","properties":{"osm_id":8029053,"highway":"residential"}},{"type":"LineString","arcs":[412,413,414,415],"properties":{"osm_id":132386869,"highway":"service"}},{"type":"LineString","arcs":[416,417,418,419],"id":"Govan Road","properties":{"osm_id":157732362,"highway":"tertiary"}},{"type":"LineString","arcs":[420],"properties":{"osm_id":219354809,"highway":"service"}},{"type":"LineString","arcs":[421],"properties":{"osm_id":35066930,"highway":"residential"}},{"type":"LineString","arcs":[422],"properties":{"osm_id":219354899,"highway":"service"}},{"type":"LineString","arcs":[423,424],"properties":{"osm_id":219354815,"highway":"service"}},{"type":"LineString","arcs":[425],"properties":{"osm_id":219354802,"highway":"service"}},{"type":"LineString","arcs":[426],"properties":{"osm_id":219354825,"highway":"footway"}},{"type":"LineString","arcs":[427],"id":"Iona Street","properties":{"osm_id":8029055,"highway":"residential"}},{"type":"LineString","arcs":[428,429],"id":"Hinshelwood Place","properties":{"osm_id":16362082,"highway":"residential"}},{"type":"LineString","arcs":[430],"id":"Hinshelwood Drive","properties":{"osm_id":8029408,"highway":"residential"}},{"type":"LineString","arcs":[431],"properties":{"osm_id":219354812,"highway":"service"}},{"type":"LineString","arcs":[432],"properties":{"osm_id":219354804,"highway":"service"}},{"type":"LineString","arcs":[433],"properties":{"osm_id":219354818,"highway":"service"}},{"type":"LineString","arcs":[434],"properties":{"osm_id":219354801,"highway":"service"}},{"type":"LineString","arcs":[435],"properties":{"osm_id":219354836,"highway":"service"}},{"type":"LineString","arcs":[436,437,438,439],"properties":{"osm_id":132544336,"highway":"service"}},{"type":"LineString","arcs":[440],"properties":{"osm_id":219354799,"highway":"service"}},{"type":"LineString","arcs":[441,442],"id":"Copland Road","properties":{"osm_id":4648619,"highway":"residential"}},{"type":"LineString","arcs":[443],"properties":{"osm_id":219354808,"highway":"service"}},{"type":"LineString","arcs":[444,445,446,447],"properties":{"osm_id":219354831,"highway":"service"}},{"type":"LineString","arcs":[448],"properties":{"osm_id":219354805,"highway":"service"}},{"type":"LineString","arcs":[449],"properties":{"osm_id":8029416,"highway":"footway"}},{"type":"LineString","arcs":[450,451,452,453,454],"properties":{"osm_id":8029306,"highway":"service"}},{"type":"LineString","arcs":[455],"properties":{"osm_id":219354806,"highway":"service"}},{"type":"LineString","arcs":[456],"id":"Harrison Drive","properties":{"osm_id":4648622,"highway":"residential"}},{"type":"LineString","arcs":[457],"id":"Cairnlea Drive","properties":{"osm_id":8029302,"highway":"residential"}},{"type":"LineString","arcs":[458],"properties":{"osm_id":219354814,"highway":"service"}},{"type":"LineString","arcs":[459,460,461],"properties":{"osm_id":219354837,"highway":"service"}},{"type":"LineString","arcs":[462,463],"id":"Briton Street","properties":{"osm_id":8029054,"highway":"residential"}},{"type":"LineString","arcs":[464],"properties":{"osm_id":219354813,"highway":"service"}},{"type":"LineString","arcs":[465,466],"id":"Edmiston Drive","properties":{"osm_id":10261561,"highway":"primary"}},{"type":"LineString","arcs":[467],"id":"Copland Road","properties":{"osm_id":204735905,"highway":"residential"}},{"type":"LineString","arcs":[468],"properties":{"osm_id":219354803,"highway":"service"}},{"type":"LineString","arcs":[469],"properties":{"osm_id":3630625,"highway":"motorway"}},{"type":"LineString","arcs":[470,471],"properties":{"osm_id":118830818,"highway":"motorway_link"}},{"type":"LineString","arcs":[472],"properties":{"osm_id":132544351,"highway":"service"}},{"type":"LineString","arcs":[473],"id":"Edmiston Drive","properties":{"osm_id":204735906,"highway":"primary"}},{"type":"LineString","arcs":[474,475,476,477,478,479,480,481,482,483,484],"id":"Copland Road","properties":{"osm_id":204735909,"highway":"residential"}},{"type":"LineString","arcs":[485],"id":"Clifford Gardens","properties":{"osm_id":35066929,"highway":"residential"}},{"type":"LineString","arcs":[486,487,488],"id":"Clynder Street","properties":{"osm_id":8029051,"highway":"residential"}},{"type":"LineString","arcs":[489,490,491],"id":"Merrick Gardens","properties":{"osm_id":4648620,"highway":"residential"}},{"type":"LineString","arcs":[492],"properties":{"osm_id":93323874,"highway":"footway"}},{"type":"LineString","arcs":[493,494,495,496],"id":"Ibrox Terrace","properties":{"osm_id":4648623,"highway":"residential"}},{"type":"LineString","arcs":[497],"properties":{"osm_id":8029307,"highway":"footway"}},{"type":"LineString","arcs":[498,499],"id":"Ibroxholm Avenue","properties":{"osm_id":4648621,"highway":"residential"}},{"type":"LineString","arcs":[500,501],"id":"Brighton Place","properties":{"osm_id":8029057,"highway":"residential"}},{"type":"LineString","arcs":[502],"id":"Mafeking Street","properties":{"osm_id":4648625,"highway":"residential"}},{"type":"LineString","arcs":[503],"properties":{"osm_id":93323876,"highway":"footway"}},{"type":"LineString","arcs":[504],"properties":{"osm_id":5204159,"highway":"footway"}},{"type":"LineString","arcs":[505],"properties":{"osm_id":93323875,"highway":"footway"}},{"type":"LineString","arcs":[506,507],"id":"Beech Avenue","properties":{"osm_id":4705648,"highway":"residential"}},{"type":"LineString","arcs":[508],"properties":{"osm_id":5204160,"highway":"footway"}},{"type":"LineString","arcs":[509,510],"id":"Edmiston Drive","properties":{"osm_id":1875,"highway":"primary"}},{"type":"LineString","arcs":[511,512,513,514],"id":"Urrdale Road","properties":{"osm_id":47463012,"highway":"residential"}},{"type":"LineString","arcs":[515],"properties":{"osm_id":93323873,"highway":"residential"}},{"type":"LineString","arcs":[516,517,518,519],"id":"Beech Avenue","properties":{"osm_id":5204161,"highway":"residential"}},{"type":"LineString","arcs":[520],"id":"Ibrox Terrace Lane","properties":{"osm_id":10261562,"highway":"service"}},{"type":"LineString","arcs":[521,522,523,524],"id":"Clifford Street","properties":{"osm_id":7277290,"highway":"residential"}},{"type":"LineString","arcs":[525],"properties":{"osm_id":163763689,"highway":"motorway"}},{"type":"LineString","arcs":[526],"id":"Merryland Street","properties":{"osm_id":9702758,"highway":"residential"}},{"type":"LineString","arcs":[527],"properties":{"osm_id":1741,"highway":"motorway"}},{"type":"LineString","arcs":[528,529],"id":"Fairley Street","properties":{"osm_id":4648624,"highway":"residential"}},{"type":"LineString","arcs":[530],"properties":{"osm_id":132882606,"highway":"service"}},{"type":"MultiLineString","arcs":[[531],[532]],"properties":{"osm_id":132433855,"highway":"service"}},{"type":"LineString","arcs":[533],"id":"Copland Place","properties":{"osm_id":8029049,"highway":"residential"}},{"type":"LineString","arcs":[534],"id":"Ibroxholm Oval","properties":{"osm_id":15090853,"highway":"residential"}},{"type":"LineString","arcs":[535],"id":"Ibroxholm Place","properties":{"osm_id":10261563,"highway":"residential"}},{"type":"LineString","arcs":[536],"properties":{"osm_id":22731352,"highway":"motorway_link"}},{"type":"LineString","arcs":[537],"properties":{"osm_id":119028145,"highway":"motorway"}},{"type":"LineString","arcs":[538],"id":"Copland Quadrant","properties":{"osm_id":8029050,"highway":"residential"}},{"type":"LineString","arcs":[539],"id":"Larch Road","properties":{"osm_id":5204155,"highway":"residential"}},{"type":"LineString","arcs":[540,541,542],"id":"Carmichael Street","properties":{"osm_id":8029046,"highway":"residential"}},{"type":"LineString","arcs":[543,544,545],"id":"Summertown Road","properties":{"osm_id":4705646,"highway":"residential"}},{"type":"LineString","arcs":[546],"id":"Maple Road","properties":{"osm_id":4705649,"highway":"residential"}},{"type":"LineString","arcs":[547],"properties":{"osm_id":132957992,"highway":"footway"}},{"type":"LineString","arcs":[548],"id":"Woodville Court","properties":{"osm_id":81878821,"highway":"service"}},{"type":"LineString","arcs":[549],"id":"Carillon Road","properties":{"osm_id":7277293,"highway":"residential"}},{"type":"LineString","arcs":[550],"properties":{"osm_id":157737805,"highway":"footway"}},{"type":"LineString","arcs":[551,552,553,554,555,556,557,558],"id":"Paisley Road West","properties":{"osm_id":29089862,"highway":"primary"}},{"type":"LineString","arcs":[559,560],"properties":{"osm_id":4575043,"highway":"cycleway"}},{"type":"LineString","arcs":[561,562],"id":"Whitefield Road","properties":{"osm_id":157739069,"highway":"residential"}},{"type":"LineString","arcs":[563],"properties":{"osm_id":199015701,"highway":"service"}},{"type":"LineString","arcs":[564],"properties":{"osm_id":132703431,"highway":"service"}},{"type":"LineString","arcs":[565],"properties":{"osm_id":199015700,"highway":"service"}},{"type":"LineString","arcs":[566,567,568,569],"id":"Whitefield Road","properties":{"osm_id":45587335,"highway":"residential"}},{"type":"LineString","arcs":[570],"id":"Ibrox Street","properties":{"osm_id":4638061,"highway":"residential"}},{"type":"LineString","arcs":[571],"properties":{"osm_id":132957980,"highway":"footway"}},{"type":"LineString","arcs":[572],"id":"Merryland Street","properties":{"osm_id":8029047,"highway":"residential"}},{"type":"LineString","arcs":[573,574,575,576,577],"id":"Brand Street","properties":{"osm_id":4592199,"highway":"unclassified"}},{"type":"LineString","arcs":[578],"properties":{"osm_id":132882603,"highway":"service"}},{"type":"LineString","arcs":[579],"id":"Whitefield Road","properties":{"osm_id":157732402,"highway":"residential"}},{"type":"LineString","arcs":[580],"properties":{"osm_id":132433816,"highway":"footway"}},{"type":"LineString","arcs":[581,582],"id":"Kirkwood Street","properties":{"osm_id":7277292,"highway":"residential"}},{"type":"LineString","arcs":[583,584],"id":"Brand Place","properties":{"osm_id":81878820,"highway":"unclassified"}},{"type":"LineString","arcs":[585,586],"properties":{"osm_id":120359089,"highway":"motorway_link"}},{"type":"LineString","arcs":[587],"properties":{"osm_id":7277300,"highway":"cycleway"}},{"type":"LineString","arcs":[588,589,590],"properties":{"osm_id":157732407,"highway":"cycleway"}},{"type":"LineString","arcs":[591,592,593],"properties":{"osm_id":157732412,"highway":"cycleway"}},{"type":"LineString","arcs":[594,595,596],"properties":{"osm_id":157732387,"highway":"cycleway"}},{"type":"LineString","arcs":[597,598],"id":"Whitefield Road","properties":{"osm_id":157732383,"highway":"residential"}},{"type":"LineString","arcs":[599,600],"id":"Whitefield Road","properties":{"osm_id":4575042,"highway":"residential"}},{"type":"LineString","arcs":[601,602,603,604],"id":"Midlock Street","properties":{"osm_id":4592198,"highway":"residential"}},{"type":"LineString","arcs":[605,606,607,608,609,610],"properties":{"osm_id":4575041,"highway":"tertiary"}},{"type":"LineString","arcs":[611,612,613],"properties":{"osm_id":157732372,"highway":"cycleway"}},{"type":"LineString","arcs":[614,615],"id":"Govan Road","properties":{"osm_id":4677104,"highway":"tertiary"}},{"type":"LineString","arcs":[616,617,618],"properties":{"osm_id":157732396,"highway":"cycleway"}},{"type":"LineString","arcs":[619],"id":"Gower Terrace","properties":{"osm_id":23219492,"highway":"unclassified"}},{"type":"LineString","arcs":[620,621],"id":"Govan Road","properties":{"osm_id":43410732,"highway":"tertiary"}},{"type":"LineString","arcs":[622,623],"id":"Govan Road","properties":{"osm_id":157732375,"highway":"tertiary"}},{"type":"LineString","arcs":[624],"properties":{"osm_id":8029048,"highway":"footway"}},{"type":"LineString","arcs":[625,626],"id":"Govan Road","properties":{"osm_id":15536865,"highway":"tertiary"}},{"type":"LineString","arcs":[627,628],"properties":{"osm_id":5218776,"highway":"motorway"}},{"type":"LineString","arcs":[629],"id":"Brand Place","properties":{"osm_id":81878844,"highway":"unclassified"}},{"type":"LineString","arcs":[630,631,632],"properties":{"osm_id":157732386,"highway":"cycleway"}},{"type":"LineString","arcs":[633,634],"id":"Ibrox Street","properties":{"osm_id":8150072,"highway":"residential"}},{"type":"LineString","arcs":[635],"properties":{"osm_id":5218775,"highway":"motorway"}},{"type":"LineString","arcs":[636],"id":"Hazelwood Road","properties":{"osm_id":4806258,"highway":"service"}},{"type":"LineString","arcs":[637,638,639],"id":"Middleton Street","properties":{"osm_id":4638060,"highway":"residential"}},{"type":"LineString","arcs":[640],"id":"Gower Terrace","properties":{"osm_id":23219491,"highway":"unclassified"}},{"type":"LineString","arcs":[641,642,643,644],"properties":{"osm_id":4806276,"highway":"cycleway"}},{"type":"LineString","arcs":[645,646],"id":"Gower Terrace","properties":{"osm_id":5218770,"highway":"unclassified"}},{"type":"LineString","arcs":[647],"properties":{"osm_id":4806256,"highway":"cycleway"}},{"type":"LineString","arcs":[648,649,650],"id":"Govan Road","properties":{"osm_id":8104378,"highway":"tertiary"}},{"type":"LineString","arcs":[651],"properties":{"osm_id":28126256,"highway":"motorway_link"}},{"type":"LineString","arcs":[652],"properties":{"osm_id":7277298,"highway":"footway"}},{"type":"LineString","arcs":[653],"id":"Porter Street","properties":{"osm_id":7277296,"highway":"residential"}},{"type":"LineString","arcs":[654],"properties":{"osm_id":163422050,"highway":"motorway_link"}},{"type":"LineString","arcs":[655],"properties":{"osm_id":7713484,"highway":"footway"}},{"type":"LineString","arcs":[656,657,658],"id":"Elizabeth Street","properties":{"osm_id":7713483,"highway":"residential"}},{"type":"LineString","arcs":[659],"properties":{"osm_id":132433835,"highway":"footway"}},{"type":"LineString","arcs":[660,661],"id":"North Gower Street","properties":{"osm_id":7277301,"highway":"residential"}},{"type":"LineString","arcs":[662],"properties":{"osm_id":23105684,"highway":"footway"}},{"type":"LineString","arcs":[663],"properties":{"osm_id":160933388,"highway":"service"}},{"type":"LineString","arcs":[664,665],"id":"Gower Street","properties":{"osm_id":5218772,"highway":"residential"}},{"type":"LineString","arcs":[666],"properties":{"osm_id":23105682,"highway":"footway"}},{"type":"LineString","arcs":[667],"properties":{"osm_id":132869195,"highway":"footway"}},{"type":"LineString","arcs":[668,669],"id":"Clifford Lane","properties":{"osm_id":7277312,"highway":"service"}},{"type":"LineString","arcs":[670],"properties":{"osm_id":23105681,"highway":"footway"}},{"type":"LineString","arcs":[671,672],"id":"Clifford Street","properties":{"osm_id":4806277,"highway":"residential"}},{"type":"LineString","arcs":[673],"id":"Academy Park","properties":{"osm_id":82819135,"highway":"residential"}},{"type":"LineString","arcs":[674],"properties":{"osm_id":28126021,"highway":"motorway"}},{"type":"LineString","arcs":[675,676,677,678],"id":"Harley Street","properties":{"osm_id":7581303,"highway":"residential"}},{"type":"LineString","arcs":[679],"properties":{"osm_id":133555484,"highway":"service"}},{"type":"LineString","arcs":[680],"properties":{"osm_id":7713482,"highway":"footway"}},{"type":"LineString","arcs":[681],"id":"Walmer Crescent","properties":{"osm_id":7713481,"highway":"residential"}},{"type":"LineString","arcs":[682,683],"properties":{"osm_id":24738222,"highway":"unclassified"}},{"type":"LineString","arcs":[684,685],"id":"Govan Road","properties":{"osm_id":4581743,"highway":"unclassified"}},{"type":"LineString","arcs":[686,687,688],"id":"Pacific Drive","properties":{"osm_id":4575040,"highway":"tertiary"}},{"type":"LineString","arcs":[689,690,691],"id":"MacLellan Street","properties":{"osm_id":7277334,"highway":"unclassified"}},{"type":"LineString","arcs":[692],"properties":{"osm_id":163975558,"highway":"motorway"}},{"type":"LineString","arcs":[693,694,695,696],"id":"Pacific Quay","properties":{"osm_id":24738232,"highway":"unclassified"}},{"type":"LineString","arcs":[697,698,699],"properties":{"osm_id":105478378,"highway":"service"}},{"type":"MultiLineString","arcs":[[700,701,702,703],[704,705]],"properties":{"osm_id":105478436,"highway":"service"}},{"type":"LineString","arcs":[706],"properties":{"osm_id":105478404,"highway":"service"}},{"type":"LineString","arcs":[707],"properties":{"osm_id":28126198,"highway":"motorway_link"}},{"type":"MultiLineString","arcs":[[708,709,710,711,712,713,714,715],[716,717,718]],"properties":{"osm_id":105478399,"highway":"service"}},{"type":"LineString","arcs":[719],"properties":{"osm_id":105478469,"highway":"service"}},{"type":"LineString","arcs":[720],"properties":{"osm_id":105478434,"highway":"service"}},{"type":"LineString","arcs":[721],"properties":{"osm_id":105478422,"highway":"service"}},{"type":"LineString","arcs":[722],"properties":{"osm_id":105478412,"highway":"service"}},{"type":"MultiLineString","arcs":[[723],[724]],"properties":{"osm_id":23105685,"highway":"service"}},{"type":"LineString","arcs":[725],"id":"Pacific Quay","properties":{"osm_id":222709044,"highway":"unclassified"}},{"type":"LineString","arcs":[726],"properties":{"osm_id":24710198,"highway":"footway"}},{"type":"LineString","arcs":[727,728],"properties":{"osm_id":105478429,"highway":"service"}},{"type":"LineString","arcs":[729],"properties":{"osm_id":105478407,"highway":"service"}},{"type":"LineString","arcs":[730,731],"properties":{"osm_id":4806279,"highway":"cycleway"}},{"type":"LineString","arcs":[732,733,734],"id":"Cessnock Street","properties":{"osm_id":4638059,"highway":"residential"}},{"type":"LineString","arcs":[735],"id":"Brand Street","properties":{"osm_id":8104379,"highway":"unclassified"}},{"type":"LineString","arcs":[736],"properties":{"osm_id":105478415,"highway":"service"}},{"type":"LineString","arcs":[737,738],"id":"Percy Street","properties":{"osm_id":4806278,"highway":"residential"}},{"type":"LineString","arcs":[739],"id":"Clifford Street","properties":{"osm_id":7277304,"highway":"residential"}}]},"Ibrox":{"type":"GeometryCollection","crs":{"type":"name","properties":{"name":"urn:ogc:def:crs:OGC:1.3:CRS84"}},"geometries":[{"type":"Polygon","arcs":[[740]],"id":"Ibrox Stadium","properties":{"osm_id":15090854}}]},"riverClyde":{"type":"GeometryCollection","crs":{"type":"name","properties":{"name":"urn:ogc:def:crs:OGC:1.3:CRS84"}},"geometries":[{"type":"MultiLineString","arcs":[[741],[742]],"id":"River Clyde","properties":{"osm_id":153245244}},{"type":"MultiLineString","arcs":[[743],[744],[745],[746],[747],[748],[749],[750],[751],[752],[753],[754],[755],[756],[757],[758],[759],[760],[761],[762],[763,764]],"id":"River Clyde","properties":{"osm_id":51105085}},{"type":"MultiLineString","arcs":[[765],[766],[767],[768],[769],[770],[771],[772],[773],[774],[775],[776]],"id":"River Clyde","properties":{"osm_id":44634816}},{"type":"LineString","arcs":[777],"id":"River Clyde","properties":{"osm_id":44634817}},{"type":"MultiLineString","arcs":[[778],[779],[780],[781],[782],[783],[784],[785],[786],[787],[788],[789]],"id":"River Clyde","properties":{"osm_id":39216698}}]},"IbroxTransit":{"type":"GeometryCollection","crs":{"type":"name","properties":{"name":"urn:ogc:def:crs:OGC:1.3:CRS84"}},"geometries":[{"type":"Point","coordinates":[2285,4595],"properties":{"osm_id":1126347658,"highway":"bus_stop"}},{"type":"Point","coordinates":[2306,4775],"id":"Govan, Helen Street/ Edmiston Drive","properties":{"osm_id":2094690698,"highway":"bus_stop"}},{"type":"Point","coordinates":[2317,4766],"id":"Govan, Helen Street/ Edmiston Drive","properties":{"osm_id":2094690697,"highway":"bus_stop"}},{"type":"Point","coordinates":[2326,4523],"id":"Bellahouston, Paisley Road West/ Bellahouston Park","properties":{"osm_id":29746946,"highway":"bus_stop"}},{"type":"Point","coordinates":[2370,4555],"id":"Bellahouston, Paisley Road West/ Bellahouston Park","properties":{"osm_id":242547047,"highway":"bus_stop"}},{"type":"Point","coordinates":[2373,5009],"id":"Govan, Helen Street/ Birkmyer Road","properties":{"osm_id":2094690696,"highway":"bus_stop"}},{"type":"Point","coordinates":[2398,5050],"id":"Govan, Helen Street/ Loanbank Quadrant","properties":{"osm_id":2094690702,"highway":"bus_stop"}},{"type":"Point","coordinates":[2501,4602],"id":"Cessnock, Paisley Road West/ Broomloan Road","properties":{"osm_id":1126347634,"highway":"bus_stop"}},{"type":"Point","coordinates":[2510,4595],"id":"Bellahouston, Paisley Road West/ Dumbreck Road","properties":{"osm_id":1126347851,"highway":"bus_stop"}},{"type":"Point","coordinates":[2513,4874],"id":"Govan, Broomloan Road/ Edmiston Drive","properties":{"osm_id":2094690591,"highway":"bus_stop"}},{"type":"Point","coordinates":[2527,4895],"id":"Govan, Broomloan Road/ Edmiston Drive","properties":{"osm_id":2094690592,"highway":"bus_stop"}},{"type":"Point","coordinates":[2570,5055],"id":"Govan, Broomloan Road/ Orton Place","properties":{"osm_id":2094690593,"highway":"bus_stop"}},{"type":"Point","coordinates":[2572,5089],"id":"Govan, Broomloan Road/ Orton Place","properties":{"osm_id":2094690594,"highway":"bus_stop"}},{"type":"Point","coordinates":[2605,4644],"id":"Cessnock, Paisley Road West/ Skene Road","properties":{"osm_id":2094697734,"highway":"bus_stop"}},{"type":"Point","coordinates":[2715,4654],"id":"Cessnock, Paisley Road West/ Merrick Gardens","properties":{"osm_id":2094697733,"highway":"bus_stop"}},{"type":"Point","coordinates":[2755,4946],"id":"Ibrox","properties":{"osm_id":29580729}},{"type":"Point","coordinates":[2755,4727],"id":"Cessnock, Edmiston Drive/ Merrick Gardens","properties":{"osm_id":2094697724,"highway":"bus_stop"}},{"type":"Point","coordinates":[2758,4909],"id":"Govan, Copland Road/ Ibrox Subway","properties":{"osm_id":2094690603,"highway":"bus_stop"}},{"type":"Point","coordinates":[2761,4940],"id":"Govan, Copland Road/ Ibrox Subway","properties":{"osm_id":2094690611,"highway":"bus_stop"}},{"type":"Point","coordinates":[2792,4726],"id":"Cessnock, Edmiston Drive/ Merrick Gardens","properties":{"osm_id":2094697723,"highway":"bus_stop"}},{"type":"Point","coordinates":[2801,4684],"id":"Cessnock, Paisley Road West/ Edmiston Drive","properties":{"osm_id":2094697729,"highway":"bus_stop"}},{"type":"Point","coordinates":[2882,5061],"id":"Govan, Summertown Road/ Carmichael Road","properties":{"osm_id":1877491370,"highway":"bus_stop"}},{"type":"Point","coordinates":[2883,5066],"id":"Govan, Summertown Road/ Carmichael Road","properties":{"osm_id":1877491372,"highway":"bus_stop"}},{"type":"Point","coordinates":[2915,5106],"id":"Govan, Govan Road/ Merryland Street","properties":{"osm_id":2094690683,"highway":"bus_stop"}},{"type":"Point","coordinates":[2915,5082],"id":"Govan, Govan Road/ Merryland Street","properties":{"osm_id":2094690681,"highway":"bus_stop"}},{"type":"Point","coordinates":[2935,4726],"id":"Cessnock, Paisley Road West/ Elizabeth Street","properties":{"osm_id":2094697731,"highway":"bus_stop"}},{"type":"Point","coordinates":[2938,4713],"id":"Cessnock, Paisley Road West/ Elizabeth Street","properties":{"osm_id":2094697730,"highway":"bus_stop"}},{"type":"Point","coordinates":[3072,4781],"id":"Cessnock","properties":{"osm_id":29750749}},{"type":"Point","coordinates":[3072,4761],"id":"Kinning Park, Paisley Road West/ Cessnock Subway Station","properties":{"osm_id":2094697735,"highway":"bus_stop"}}]}},"arcs":[[[8744,3153],[7,-18],[38,-65],[5,-16],[1,-17],[-3,-10],[-4,-11],[-9,-8],[-7,-3],[-9,0],[-33,4],[-17,9],[-16,12],[-11,15],[-16,16],[-34,25],[-25,23],[-13,16],[-12,9],[-17,17],[-20,17],[-20,26],[-17,16],[-20,13],[-49,29],[-30,31],[-27,35],[-25,28],[-39,29],[-41,38],[-14,18],[-2,12],[-12,12],[-46,37],[-12,8],[-13,4],[-15,1],[-12,-4],[-25,-16],[-38,-19],[-24,-16],[-39,-35],[-45,-45],[-12,-9],[-21,-13],[-45,-16],[-51,-27],[-27,-20],[-52,-54],[-36,-32],[-32,-25],[-25,-12],[-11,-3],[-12,-1],[-29,4],[-31,8],[-51,-3],[-31,-6],[-103,-11],[-20,-7],[-40,-3],[-14,-6],[-41,-8],[-46,-20],[-25,-13],[-11,-9],[-33,-21]],[[7185,3063],[-44,-31],[-22,-17],[-16,-18],[-74,-52],[-33,-26],[-40,-52],[-53,-38],[-25,-15],[-9,-3],[-5,-1],[-26,4],[-18,7],[-21,14],[-24,33],[-15,33],[-10,37],[-8,63],[-18,78],[-14,77],[-14,48],[-12,24],[-8,30],[-3,19],[-6,19],[-4,38],[-1,155],[-7,80],[-5,32],[-4,12],[-8,19],[-12,19],[-11,11],[-13,10],[-140,62],[-23,8],[-16,0]],[[6423,3742],[-19,-5],[-33,-25],[-68,-69],[-11,-17],[-6,-22],[-2,-26],[2,-32],[6,-46],[-5,-37],[-5,-15],[-35,-28],[-23,-16],[-10,-6],[-15,-1],[-13,4],[-80,69],[-57,54],[-10,16],[-6,13],[-5,12],[-1,12],[-1,17],[5,31],[-1,18],[5,19],[18,35],[19,23],[12,12],[30,22],[26,25],[10,14],[7,16],[7,36],[-2,23],[-6,23],[-9,18],[-35,49],[-21,25],[-39,53],[-46,66],[-72,108],[-19,26],[-20,14]],[[5895,4250],[-14,7],[-18,-1],[-18,-4],[-9,-8],[-24,-67],[-3,-11],[-2,-28],[4,-26],[13,-33],[6,-12],[17,-18],[13,-9],[30,-14],[14,-13],[18,-31],[6,-18],[3,-22],[-1,-34],[-7,-26],[-15,-32],[-8,-11],[-13,-12],[-21,-15],[-18,-8],[-47,-16],[-64,-11],[-68,-14],[-28,-7],[-39,-20],[-21,-13],[-25,-22],[-38,-40],[-72,-99],[-25,-37],[-20,-19],[-9,-6],[-19,-7],[-14,0],[-8,5],[-23,23],[-8,10],[-20,39],[-12,30],[-2,35]],[[5286,3635],[1,21],[5,20],[18,96],[6,48],[-1,25],[-3,14],[-6,12],[-16,20],[-24,23],[-64,47],[-51,52],[-24,-34],[-92,-141],[24,-23],[-65,-103],[14,-34],[6,-29],[-56,-119],[95,-71],[44,-420],[2,-20],[-2,-1],[4,-22],[10,-85],[-40,-35],[-56,-33],[-15,-5],[-4,-2],[-9,2],[-15,4],[-51,27],[42,-259],[2,-27],[-2,-32],[2,-1],[-6,-31],[89,-12],[94,-17],[-1,-6],[-2,-5],[-22,-1],[-12,-10],[12,-16],[10,-18],[2,1],[1,-2],[86,-351],[154,72],[24,21],[62,69],[29,22],[15,8],[18,4],[13,1],[26,-1],[1,-36],[4,-26],[6,-23],[10,-33],[37,-216],[14,-47],[16,-342],[-1,0],[18,-269],[213,6],[-50,-42],[-77,-46],[-22,-17],[-462,-468],[-130,-283],[-12,10],[-44,-133],[131,-68],[11,-16],[26,-27],[-31,-62],[-2,-29],[-7,-19],[-28,-92],[-16,8],[-25,22],[-11,13],[-152,84],[-3,-13],[-51,-6],[-35,-16],[9,87],[-7,1],[-16,33],[-13,13],[-32,23],[-34,9],[-2,-2],[-5,3],[-88,96],[-11,-16],[-9,10],[-1,16],[-5,5],[5,6],[-18,19],[-129,-117],[-25,-14],[-32,-9],[-23,-12],[-14,-5],[-5,5],[8,10],[31,31],[1,5],[-22,18],[-2,5],[1,5],[-6,9],[-7,5],[-8,0],[-4,3],[-12,23],[-8,7],[-11,3],[-20,-4],[-21,2],[-19,4],[-14,-1],[-8,6],[-11,18],[-18,5],[-16,-9],[-30,-21],[-11,-3],[-21,7],[-5,6],[-3,16],[-5,4],[-7,1],[-10,-4],[-9,-6],[-11,-21],[-9,-13],[-2,-8],[-4,-6],[-5,-2],[-6,2],[-7,11],[-4,1],[-3,-2],[-5,-11],[1,-30],[-5,-8],[-8,-3],[-36,18],[-18,2],[-18,26],[-2,2],[-29,36],[-6,20],[9,12],[4,9],[-1,7],[-9,18],[-10,28],[-11,22],[-23,52],[-8,29],[-3,21],[-8,24],[-7,12],[-7,20],[-20,30],[-6,13],[7,27],[6,51],[4,8],[11,13],[20,4],[58,-2],[44,18],[9,9],[7,16],[10,44],[2,16],[-3,50],[2,27],[17,44],[22,46],[25,35],[5,12],[1,9],[-23,66],[-6,29],[-7,11],[-11,5],[-14,2],[-64,17],[-30,4],[-9,6],[-6,8],[-1,8],[9,29],[24,58],[3,28],[7,-2],[-13,42],[-14,29],[-5,18],[-4,24],[-1,32],[-32,-16],[-81,-73],[-12,11],[8,21],[6,24],[2,2],[1,5],[-2,2],[-4,14],[37,131],[5,12],[26,48],[47,-31],[9,11],[4,33],[10,20],[12,-7],[10,-1],[17,5],[17,14],[8,14],[8,24],[4,16],[23,23],[18,25],[8,21],[7,10],[-10,17],[31,29],[-25,38],[4,3],[-8,11],[5,8],[-53,6],[-20,-3],[-34,-10],[-25,-5],[-10,1],[-20,8],[-17,0],[-7,-2],[-7,-8],[-16,-27],[7,-7],[-7,-17],[-12,-18],[-12,-12],[-61,-48],[1,-2],[-10,-7],[-13,26],[-19,-5],[-6,1],[-9,-25],[-106,46],[-52,31],[-15,-29],[-13,20],[-91,64],[-11,20],[-11,13],[-10,6],[-6,11],[-30,23],[-63,10],[-28,14],[-22,9],[-16,1],[-6,3],[-90,14],[-20,18],[-8,14],[-27,39],[-12,12],[-6,12],[-5,-8],[-26,-26],[-45,-59],[-50,-111],[-5,-16],[-6,-27],[-11,-20],[1,-1],[-12,-14],[-15,-10],[-9,-9],[-26,40],[-6,6],[-26,17],[-14,5],[-39,3],[-108,-5],[-4,-5],[-3,-31],[3,-56],[-31,7],[-1,-4],[-14,8],[-26,10],[-24,14],[-15,10],[-24,21],[-24,28],[-16,25],[-10,19],[2,2],[-9,25],[-5,4],[-10,-12],[-9,-22],[-18,-83],[-24,-12],[-14,-4],[-13,-2],[-12,1],[5,-65],[-132,-19],[-6,-5],[-12,-2],[-124,-17],[-16,1],[-15,4],[-28,15],[-15,10],[1,-33],[-33,-22],[37,-73],[56,-88],[13,-26],[20,-59],[8,-39],[5,-52],[-4,-131],[8,-7],[-335,-519],[-215,97],[-104,48],[-377,0],[-147,-40],[-344,33],[-11,-10],[-4,0],[-15,46],[-6,10],[-141,200],[22,23],[-46,66],[31,4],[19,-3],[23,-13],[11,-9],[11,-4],[23,6],[10,-3],[6,2],[10,11],[6,15],[9,14],[11,11],[19,34],[68,88],[-78,25],[9,12],[19,22],[11,7],[64,16],[17,1],[21,-3],[-28,45],[-90,124],[-3,5],[-2,7],[-44,41],[-35,43],[13,14],[-8,11],[-15,9],[4,12],[2,9],[0,33],[0,11],[-6,24],[2,11],[-3,14],[-5,16],[-12,19],[-11,11],[-11,18],[-3,8],[-2,20],[6,58],[8,23],[11,20],[14,19],[14,13],[1,13],[-3,8],[6,31],[1,25],[4,15],[4,9],[5,7],[28,21],[9,10],[8,20],[0,30],[5,14],[5,6],[11,5],[9,-1],[25,-8],[47,4],[12,4],[10,5],[12,14],[10,22],[5,75],[-18,8],[-35,28],[-27,17],[-19,6],[-26,1],[-20,6],[-15,6],[-10,8],[-109,108],[-49,56],[-75,93],[-31,30],[44,69],[13,24],[9,19],[6,26],[6,34],[10,20],[32,53],[2,24],[-7,43],[-10,33],[-17,41],[102,392],[-25,20],[12,3],[9,9],[13,17],[8,14],[2,19],[-2,37],[23,75],[6,9],[11,11],[32,20],[13,11],[9,4],[21,4],[5,36],[21,31],[-2,5],[-9,4],[-1,9],[-3,3],[2,26],[-8,41],[35,27],[4,18],[-2,5],[-4,42],[33,213],[21,-5],[2,16],[-17,98],[-5,15],[-13,-4],[-1,7],[-15,-6],[1,-2],[-18,-6],[-4,-18],[-22,16],[4,10],[-20,17],[7,21],[-33,11],[-11,6],[-66,52],[17,37],[13,74],[-22,12],[-8,7],[-7,10],[-11,31],[-4,6],[-9,8],[-11,6],[-12,2],[-17,0],[-84,-32],[20,110],[-20,101],[-21,96],[-10,42],[0,8],[76,-2],[27,-5],[32,15],[2,-2],[52,-10],[66,-9],[27,-8],[105,-22],[78,-19],[39,-6],[60,169],[32,102],[9,37],[29,63],[118,181],[112,4],[-1,20],[-5,12],[-5,12],[-34,46],[-10,21],[-8,36],[-8,73],[1,18],[-12,102],[-1,13],[2,14],[-5,9],[1,36],[-4,17],[-3,18],[1,18],[4,17],[5,7],[2,9],[-2,8],[-1,18],[-6,19],[-9,104],[21,2],[4,-4],[13,0],[27,-17],[22,57],[-56,59],[-69,51],[-39,36],[-40,32],[-21,23],[-21,17],[-17,17],[-39,43],[-18,12],[-8,0],[-106,106],[-23,34],[-31,28],[-53,61],[-61,53],[-17,21],[-21,29],[-69,70],[-5,3],[-13,2],[-10,7],[-29,29],[-65,55],[-70,73],[-28,23],[-84,52],[-147,64],[-76,38],[13,17],[26,26],[15,26],[14,11],[11,23],[6,5],[10,0],[18,-11],[13,-3],[5,1],[5,12],[3,3],[8,-14],[19,-11],[7,-1],[14,1],[36,-22],[7,-2],[9,1],[6,5],[5,9],[0,5],[-7,19],[-7,10],[-1,9],[-49,23],[20,61],[20,32],[21,-17],[32,-18],[1,1],[9,-4],[9,1],[4,12],[6,12],[-3,14],[1,4],[6,12],[-2,7],[-13,14],[0,2],[7,2],[2,10],[-1,8],[22,19],[-15,41],[-1,8],[25,9],[18,11],[19,16],[17,19],[-34,78],[34,21],[5,0],[4,-3],[2,40],[2,4],[7,3],[-12,35],[45,142],[105,-10],[3,5],[-2,14],[-6,9],[-4,11],[1,36],[-2,9],[-10,22],[-6,8],[-36,29],[4,12],[-29,28],[-19,21],[-25,31],[-28,38],[-288,439],[12,3],[45,13],[37,8],[1,21],[-3,20],[-1,4],[-19,17],[-8,15],[-4,16],[-16,29],[-4,16],[0,7],[-2,9],[2,7],[-1,16],[3,21],[-2,9],[3,8],[-1,6],[3,3],[0,6],[0,3],[4,3],[2,3],[1,3],[1,10],[4,6],[0,8],[1,2],[1,3],[-3,8],[4,6],[0,5],[2,4],[-2,7],[2,7],[-3,6],[3,19],[0,1],[-2,12],[2,9],[-3,8],[0,7],[1,1],[4,8],[2,3],[1,6],[9,12],[0,2],[1,5],[1,4],[4,4],[1,2],[2,10],[9,8],[13,10],[6,1],[3,0],[5,7],[4,1],[1,1],[3,5],[2,0],[7,2],[5,5],[6,6],[1,0],[3,0],[3,1],[5,4],[4,-2],[1,0],[2,2],[6,4],[13,-1],[6,3],[7,4],[2,-2],[1,-2],[8,2],[53,28],[45,20],[2,11],[9,13],[-2,41],[-6,10],[4,20],[-4,4],[4,6],[1,13],[8,15],[1,10],[-5,5],[16,3],[3,-2],[88,-16],[169,-4],[142,10],[6,1],[17,8],[40,8],[27,-17],[23,-4],[16,-17],[4,-1],[13,-11],[7,15],[6,6],[59,14],[28,-11],[9,-2],[13,3],[10,-4],[7,-6],[26,-29],[75,-87],[43,-54],[38,-42],[10,-2],[21,-20],[13,0],[25,-4],[15,-17],[13,-7],[27,1],[12,-3],[18,-12],[-16,-17],[-28,-16],[-14,-11],[-19,-46],[24,-76],[6,-8],[7,-5],[-28,-78],[25,-51],[-56,-127],[24,-85],[-9,-173],[13,-66],[8,10],[10,21],[5,7],[10,6],[11,0],[24,-7],[3,-7],[6,-3],[14,0],[16,-7],[21,-15],[24,-13],[9,-9],[15,-20],[38,-26],[20,-6],[11,-2],[119,1],[27,-8],[33,-15],[25,-19],[36,-36],[36,-57],[-3,-3],[32,-47],[26,-20],[63,-79],[3,-19],[118,65],[144,36],[-10,5],[-3,5],[-9,19],[-2,17],[6,28],[13,46],[31,47],[20,27],[11,12],[7,12],[11,28],[14,33],[14,42],[13,26],[14,16],[18,16],[21,14],[21,5],[41,-8],[64,-2],[15,-1],[7,-2],[10,-6],[6,-6],[16,-22],[18,-32],[8,-9],[11,-7],[14,0],[67,20],[23,5],[16,-5],[19,-14],[29,-14],[21,-5],[12,2],[4,3],[4,4],[4,10],[-3,33],[-3,19],[-5,19],[-13,35],[-4,14],[-4,41],[1,28],[9,19],[7,6],[21,9],[28,5],[41,12],[35,6],[28,19],[30,30],[7,10],[4,12],[3,29],[7,29],[4,10],[6,7],[7,2],[12,1],[35,-9],[28,-2],[6,2],[8,6],[4,4],[4,9],[0,27],[-48,143],[-128,45],[-161,94],[27,70],[6,32],[17,77],[3,114],[14,2],[20,325],[8,150],[4,81],[1,11],[47,-36],[20,-11],[25,-2],[224,-36],[113,-20],[71,8],[13,7],[37,31],[34,18],[9,3],[23,0],[9,1],[11,13],[2,5],[-2,10],[-11,11],[-2,10],[4,7],[5,4],[13,1],[30,8],[17,-2],[22,-14],[29,-12],[25,-14],[17,-15],[20,-12],[28,-32],[4,-3],[11,-4],[9,1],[6,2],[18,24],[21,15],[6,0],[15,-11],[28,-38],[10,-27],[2,-17],[-4,-6],[-6,3],[-7,0],[-4,-2],[-3,-5],[-2,-9],[1,-30],[-4,-3],[-5,-6],[-3,-16],[6,-43],[-11,-28],[-29,-50],[-12,-46],[-3,-24],[0,-12],[2,-9],[22,-49],[9,-28],[-1,-15],[-9,-33],[-1,-11],[1,-8],[9,-28],[1,-18],[84,-25],[76,-64],[10,-20],[-10,-6],[106,-376],[126,79],[20,-70],[131,-123],[8,-15],[-64,-76],[46,-75],[13,0],[57,17],[-3,-57],[27,-53],[-16,-59],[13,-23],[61,-169],[16,-8],[21,12],[136,33],[1,6],[-1,15],[5,6],[104,10],[5,-52],[3,0],[12,-129],[-19,-9],[-22,-5],[-10,-9],[1,-5],[11,2],[7,-2],[10,-8],[5,-9],[32,-123],[4,-24],[1,-51],[2,-11],[24,-56],[-24,-44],[48,-7],[206,-23],[6,3],[4,-11],[59,-12],[-6,43],[298,68],[3,-21],[13,2],[0,6],[2,0],[0,2],[25,5],[10,1],[1,-2],[17,2],[1,0],[4,-8],[9,1],[-2,5],[3,0],[0,-2],[12,2],[2,-14],[7,1],[8,-12],[11,15],[6,-2],[16,4],[4,-4],[5,-1],[8,-15],[19,8],[-5,18],[55,-11],[68,4],[82,20],[62,21],[47,20],[16,-9],[5,-17],[6,3],[25,3],[6,-9],[1,10],[25,17],[6,-1],[6,4],[7,-4],[6,11],[6,-3],[4,9],[-6,5],[4,8],[14,-12],[8,1],[1,5],[7,5],[5,-3],[19,10],[23,-3],[2,0],[10,17],[13,10],[11,4],[16,-3],[4,10],[4,-2],[-1,-4],[11,1],[-1,7],[13,0],[7,3],[0,3],[11,-2],[11,5],[-11,61],[7,2],[1,14],[5,13],[6,10],[4,4],[194,86],[24,14],[19,16],[8,3],[11,11],[11,16],[10,18],[15,35],[16,46],[7,10],[5,-5],[16,-37],[13,-51],[-1,-6],[-2,-5],[-20,-16],[-3,-5],[15,-36],[7,-32],[55,41],[5,-154],[63,-123],[21,-35],[36,-4],[10,-64],[79,2],[6,-6],[45,-25],[30,0],[49,15],[123,63],[36,16],[7,-93],[-57,-24],[89,-415],[-58,-6],[-35,-25],[50,-131],[-250,-98],[3,-3],[18,-14],[81,-79],[62,-82],[54,40],[132,114],[58,-139],[46,45],[5,1],[18,-9],[8,-1],[7,2],[9,7],[14,4],[7,5],[-3,26],[5,17],[5,11],[3,10],[3,64],[5,18],[12,20],[8,5],[25,11],[0,-11],[4,-12],[4,-4],[5,-11],[7,-6],[4,-1],[4,-6],[9,-24],[0,-16],[4,-5],[-2,-10],[5,-9],[7,-3],[4,-10],[4,-26],[-2,-10],[0,-10],[7,-14],[8,-28],[24,-32],[36,16],[35,-6],[44,-1],[24,-17],[57,-42],[274,68],[10,0],[41,-30],[12,3],[60,-10],[-25,141],[6,1],[10,-5],[10,-10],[41,2],[7,3],[4,18],[6,7],[3,1],[0,-3],[10,-1],[7,-4],[4,-6],[9,-4],[8,-1],[9,3],[-3,24],[11,2],[-1,5],[6,19],[-3,10],[-3,1],[-5,13],[-4,35],[-1,44],[2,23],[191,-53],[6,-6],[21,-33],[11,-8],[86,-15],[19,-1],[8,2],[11,4],[32,21],[173,48],[3,-3],[3,-11],[30,-186],[102,41],[165,6],[12,14],[17,-14],[52,4],[-3,-51],[5,-23],[60,-121],[14,13],[22,-15],[77,-54],[31,12],[34,35],[6,2],[159,128],[4,-11],[51,-171],[42,10],[12,-71],[-32,-148],[-21,-79],[26,-208],[0,-17],[-4,-211],[-3,-50],[-9,-88],[0,-14],[1,-12],[14,-38],[29,-48],[10,-24],[16,-48],[4,1],[7,-63],[2,-65],[3,-13],[6,-23],[14,-30],[44,-43],[20,-15],[27,-6],[55,-57],[-57,-41],[-2,-2],[0,-6],[-3,0],[-2,1],[-94,-65],[-12,-8],[-63,-26],[-30,-10],[-8,-9],[-9,-2],[-10,5],[-49,-8],[-12,-1],[-92,-1],[-13,-37],[-13,-41],[-38,-150],[-11,-55],[-2,-21],[1,-23],[5,-23],[13,-32],[18,-27],[37,-37],[58,-55],[23,-24],[-5,-1],[29,-104],[-1,-7],[-12,-27],[49,-20],[41,-23],[37,-30],[25,-24],[16,-19],[32,-44],[28,-53],[20,-54],[13,-51],[-53,-18],[-14,2],[-6,11],[-9,30],[-3,5],[-24,26],[-10,5],[-28,-21],[-12,-2],[-8,-4],[-43,-48],[-10,-8],[-5,2],[-6,7],[-13,26],[-5,6],[-6,2],[-30,0],[-7,5],[-8,13],[-4,29],[-5,7],[-7,1],[-12,-5],[-11,-11],[-23,-12],[-28,2],[-13,-3],[-25,-13],[-19,-13],[-25,-14],[-13,-14],[-15,-25],[-14,-18],[-10,-12],[-9,-5],[-9,0],[-7,4],[-19,24],[-26,14],[-13,2],[-10,-4],[-4,-6],[-1,-7],[3,-12],[-3,-8],[-32,-17],[-36,-37],[-9,-5],[-17,0],[-25,6],[-32,13],[-14,4],[-30,2],[-32,-11],[-10,-7],[-10,-9],[-14,-20],[-3,-8],[-13,-53],[-7,-24],[-24,-43],[-25,-24],[-10,-21],[-3,-15],[2,-7],[7,-5],[30,-4],[47,6],[8,-2],[3,-5],[2,-17],[-2,-17],[2,-13],[0,-15],[-2,-7],[-17,-15],[-12,-2],[-20,6],[-40,23],[-9,3],[-8,-1],[-4,-2],[-54,-37],[-6,-9],[-2,-10],[4,-14],[2,-4],[15,-9],[19,-38],[8,-22],[2,-7],[-1,-16],[-8,-54],[-4,-16],[-11,-26],[-15,-46],[-7,-7],[-13,-6],[-10,-10],[-18,-29],[-6,-16],[-3,-20],[-1,-23],[-4,-13],[12,-28],[-22,-22],[-20,-25],[-21,-39],[-14,-43],[-3,-18],[-2,-48],[2,-25]],[[2325,4886],[-4,3],[-39,10],[-24,4]],[[2258,4910],[14,-3]],[[2272,4907],[50,-12],[4,1]],[[2288,4520],[-7,-7],[-5,-4]],[[2276,4509],[-6,-3],[-12,-4]],[[2258,4507],[10,4]],[[2268,4511],[2,0],[6,5]],[[2258,4596],[22,-4]],[[2258,4656],[25,-2],[10,1]],[[2699,4555],[-45,-2],[-40,3],[-45,8],[-39,9],[-40,11]],[[2490,4584],[-80,26],[-53,12],[-86,8],[-13,2]],[[2290,4597],[-4,15],[-3,4],[-7,6]],[[2276,4622],[-18,3]],[[2303,4758],[-1,-5],[-1,-2],[-3,0]],[[2298,4751],[-5,1],[-34,8],[-1,0]],[[2267,4716],[-1,-1],[-4,-3],[-4,-2]],[[2288,4456],[23,6],[1,-6]],[[2258,4644],[15,-3],[85,-8],[53,-11],[98,-32]],[[2509,4590],[17,-5],[42,-12],[47,-7],[37,-3],[39,1],[50,8]],[[2258,4554],[16,-3]],[[2258,4922],[11,-1]],[[2258,4715],[3,0],[3,3]],[[2258,4960],[7,-2]],[[2265,4958],[12,-4]],[[2258,5018],[8,-2]],[[2266,5016],[10,-4]],[[2258,4742],[2,3],[2,7],[1,0],[2,0],[11,-3],[7,-1]],[[2266,5016],[6,29],[10,-3],[-6,-30]],[[2276,5012],[-6,-31]],[[2270,4981],[-12,4]],[[2258,5000],[0,1]],[[2258,5001],[2,10]],[[2316,4814],[-4,0]],[[2312,4814],[-16,4]],[[2296,4818],[-11,2]],[[2285,4820],[-9,0],[-18,4]],[[2305,4771],[-47,9]],[[2258,4726],[1,-1],[3,-3],[2,-2]],[[2258,4990],[8,-2]],[[2258,5015],[2,-4]],[[2260,5011],[10,-3]],[[2270,5008],[-2,-10]],[[2268,4998],[-2,-10]],[[2266,4988],[4,-7]],[[2258,5001],[10,-3]],[[2264,4718],[0,1],[0,1]],[[2264,4720],[0,1],[1,1],[1,1],[1,0]],[[2285,4820],[-6,5],[-11,3],[-4,3],[0,3],[6,24]],[[2267,4716],[-1,0],[-1,1],[-1,1]],[[2270,4981],[-5,-23]],[[2269,4722],[1,-1]],[[2270,4721],[0,-1],[0,-2]],[[2270,4718],[-1,-1],[-1,-1],[-1,0]],[[2267,4723],[1,0],[1,-1]],[[2267,4723],[0,3],[2,11],[4,6],[5,4],[5,1]],[[2283,4748],[5,1],[17,-4]],[[2271,4531],[-3,-20]],[[2304,4738],[-7,2],[-6,1],[-7,1],[-5,-1],[-4,-3],[-3,-5],[-2,-9],[-1,-2]],[[2269,4921],[3,-9],[0,-5]],[[2277,4954],[2,-6],[-10,-27]],[[2270,4721],[4,-3]],[[2274,4718],[10,-3],[3,1],[1,2],[0,3],[-1,1],[-5,0],[-3,0],[-2,3],[2,9],[3,1],[7,-2],[2,-1]],[[2291,4732],[2,-2],[-1,-5],[-2,-13],[0,-1]],[[2290,4711],[-1,-8],[-14,4],[-2,7],[-3,4]],[[2270,5008],[6,4]],[[2280,4592],[-6,-41]],[[2274,4551],[-3,-20]],[[2274,4718],[2,-3],[10,-2],[3,-1],[1,-1]],[[2276,4516],[7,11]],[[2290,4620],[-6,1],[-8,1]],[[2306,4521],[-30,-12]],[[2283,4527],[0,3],[1,4],[2,2],[2,2]],[[2288,4520],[-3,2],[-2,5]],[[2287,4837],[3,-1]],[[2290,4836],[8,-2]],[[2298,4834],[4,-2]],[[2302,4832],[5,-1]],[[2296,4520],[-2,-1],[-3,-1],[-3,2]],[[2288,4538],[3,1],[3,0],[2,-1]],[[2288,4538],[2,17],[0,42]],[[2290,4597],[0,23]],[[2290,4620],[0,3]],[[2298,4751],[-2,-14],[-7,2],[2,-7]],[[2296,4818],[2,13]],[[2298,4831],[0,3]],[[2298,4834],[3,16]],[[2301,4850],[3,14]],[[2304,4864],[2,6],[4,0],[3,-1],[3,2],[1,7],[-1,4],[-5,1],[-13,3],[-3,-1],[0,-4],[0,-3],[1,-2],[3,-1],[2,-1],[2,-1],[1,-2],[0,-7]],[[2304,4864],[-2,1],[-6,1],[-3,-14]],[[2293,4852],[-3,-16]],[[2290,4836],[0,-3],[8,-2]],[[2298,4831],[9,-3],[0,3]],[[2307,4831],[3,17],[-9,2]],[[2301,4850],[-8,2]],[[2296,4620],[-6,0]],[[2290,4623],[2,27]],[[2317,4819],[-11,2],[-6,1],[2,10]],[[2302,4832],[4,19],[1,9],[-16,4]],[[2292,4650],[1,5]],[[2293,4655],[11,83]],[[2296,5117],[-2,-7],[70,-31]],[[2364,5079],[34,-13]],[[2296,4622],[0,-2]],[[2296,4620],[-1,-22]],[[2295,4598],[1,-10],[0,-34],[0,-16]],[[2490,4584],[-30,7],[-56,14],[-39,6],[-47,6]],[[2318,4617],[-12,-3],[-5,-1],[-2,-3],[-4,-12]],[[2296,4538],[2,-3],[2,-3],[0,-2]],[[2318,4617],[-19,2],[-3,1]],[[2298,4650],[-2,-28]],[[2300,4530],[0,-4],[-1,-3],[-3,-3]],[[2451,4573],[-14,-6]],[[2437,4567],[-51,-18],[-26,-10]],[[2360,4539],[-33,-11],[-18,-6]],[[2309,4522],[-3,-1]],[[2306,4521],[-10,-1]],[[2311,4744],[-1,-7]],[[2310,4737],[-10,-72],[-1,-11]],[[2299,4654],[-1,-4]],[[2299,4654],[36,-4],[28,-6],[17,-5],[15,-5],[19,-6],[58,-21],[37,-17]],[[2300,4530],[6,-2],[21,5],[42,17],[16,6],[51,20],[10,4]],[[2312,4814],[-7,-43]],[[2305,4771],[-2,-13]],[[2303,4758],[3,-3]],[[2310,4737],[-6,1]],[[2304,4738],[1,7]],[[2305,4745],[1,10]],[[2306,4755],[5,30],[5,29]],[[2316,4814],[1,5]],[[2317,4819],[10,62]],[[2305,4745],[6,-1]],[[2309,4522],[3,-14]],[[2312,4508],[1,-9]],[[2313,4499],[4,-21]],[[2317,4478],[4,-20]],[[2321,4458],[0,-2]],[[2335,4879],[-9,-44],[-8,-41]],[[2318,4794],[-2,-12],[-1,-5]],[[2315,4777],[-4,-33]],[[2346,4522],[-7,-2],[1,-3],[-28,-9]],[[2315,4456],[6,2]],[[2313,4499],[29,5]],[[2343,4782],[0,-1],[-2,-2],[-6,1],[-12,4],[-4,-1],[-4,-6]],[[2330,4482],[-13,-4]],[[2343,4782],[5,-1],[13,-13],[-4,-16],[-14,-17],[-25,4]],[[2318,4794],[2,-5],[3,-3],[7,0],[7,-1],[6,-3]],[[2353,5019],[-15,-44]],[[2338,4975],[-17,-45]],[[2327,4881],[-2,5]],[[2325,4886],[-1,3],[1,4],[1,3]],[[2326,4896],[3,3],[4,1]],[[2333,4900],[3,0],[2,-2]],[[2338,4898],[2,-2],[2,-4]],[[2342,4892],[0,-4],[-1,-3]],[[2341,4885],[-2,-3],[-2,-2],[-2,-1]],[[2335,4879],[-4,0],[-2,1],[-2,1]],[[2333,4900],[8,16]],[[2360,4963],[-22,12]],[[2341,4916],[-3,-18]],[[2420,5117],[-22,-51]],[[2398,5066],[-36,-96]],[[2362,4970],[-2,-7]],[[2360,4963],[-8,-15],[-7,-14],[-4,-18]],[[2500,4823],[-3,2],[-5,3],[-31,11],[-5,2]],[[2456,4841],[-35,13],[-80,31]],[[2342,4892],[80,-31],[40,-15],[32,-12],[5,-1],[3,-1]],[[2467,4563],[-81,-35],[-6,-9],[-16,-6]],[[2364,4513],[-22,-9]],[[2343,4782],[7,36],[1,17],[23,14],[22,-8]],[[2360,4539],[1,-4],[3,-17],[0,-5]],[[2364,4513],[-1,-15],[-1,-28],[1,-10],[1,-4]],[[2362,4970],[42,-19],[12,6]],[[2364,5079],[10,36]],[[2430,4456],[5,8],[10,12]],[[2445,4476],[70,71]],[[2515,4547],[6,10]],[[2428,4793],[15,-6]],[[2443,4787],[12,-4]],[[2429,4774],[16,6]],[[2445,4780],[10,3]],[[2430,4803],[16,-6]],[[2446,4797],[29,-11],[0,-1],[1,-1],[0,-1]],[[2476,4783],[0,-1],[0,-1],[-1,-1],[-1,-1],[-1,-1],[-26,-8]],[[2447,4770],[-16,-5]],[[2433,4813],[16,-6]],[[2449,4807],[34,-13]],[[2483,4794],[17,-6]],[[2433,4755],[17,5]],[[2450,4760],[34,11]],[[2435,4823],[16,-6]],[[2451,4817],[34,-13]],[[2485,4804],[13,-5]],[[2435,4744],[17,6]],[[2452,4750],[34,11]],[[2486,4761],[17,5]],[[2515,4547],[-48,16]],[[2467,4563],[-29,-3],[-1,7]],[[2494,4811],[-6,2]],[[2488,4813],[-35,13]],[[2453,4826],[-16,6]],[[2438,4735],[16,5]],[[2454,4740],[34,11]],[[2488,4751],[17,5]],[[2440,4725],[16,5]],[[2456,4730],[34,11]],[[2490,4741],[17,5]],[[2509,4736],[-17,-5]],[[2492,4731],[-34,-11]],[[2458,4720],[-16,-5]],[[2456,4841],[-3,-15]],[[2453,4826],[-2,-9]],[[2451,4817],[-2,-10]],[[2449,4807],[-2,-6],[-1,-4]],[[2446,4797],[-2,-8],[-1,-1],[0,-1]],[[2443,4787],[0,-1],[2,-6]],[[2445,4780],[2,-10]],[[2447,4770],[1,-2],[2,-8]],[[2450,4760],[2,-10]],[[2452,4750],[2,-10]],[[2454,4740],[2,-10]],[[2456,4730],[2,-10]],[[2523,4464],[-10,7],[-15,-6],[-18,-3],[-9,1],[-15,6],[-11,7]],[[2446,4580],[63,23]],[[2513,4598],[-58,-24]],[[2455,4574],[-4,-1]],[[2455,4574],[24,-3],[42,-14]],[[2535,4939],[-30,11]],[[2505,4950],[-33,11],[3,19]],[[2475,4980],[-20,6]],[[2475,4980],[34,-9]],[[2481,4784],[-5,-1]],[[2484,4771],[-3,12],[0,1]],[[2481,4784],[0,1],[0,2],[2,7]],[[2483,4794],[2,10]],[[2485,4804],[3,9]],[[2513,4780],[-3,-1]],[[2510,4779],[-15,-5],[-11,-3]],[[2484,4771],[2,-10]],[[2486,4761],[2,-10]],[[2488,4751],[2,-10]],[[2490,4741],[2,-10]],[[2487,5029],[14,-6],[10,-5]],[[2530,4456],[-7,8]],[[2523,4464],[-16,-7],[0,-1]],[[2516,4819],[-1,-2],[-1,-1],[-1,-1]],[[2513,4815],[-2,0],[-2,-1],[-1,0],[-2,1],[-1,0]],[[2505,4815],[-1,1],[-1,1],[-1,2],[-1,1],[0,1],[-1,2]],[[2500,4823],[0,2],[0,1],[0,1],[1,2],[0,1],[1,1],[0,1]],[[2502,4832],[1,1],[1,1],[1,1],[2,0],[1,1],[2,0]],[[2510,4836],[1,0],[2,-1],[1,-1],[1,-1],[1,-1],[1,-1],[0,-2],[1,-2]],[[2518,4827],[0,-2],[0,-2],[-1,-3],[-1,-1]],[[2511,4982],[-2,-11]],[[2509,4971],[-4,-21]],[[2550,4620],[-3,10],[-11,35],[-11,42]],[[2525,4707],[-13,60],[-2,11],[0,1]],[[2510,4779],[-1,5],[0,7],[-1,13],[-1,5],[-1,3],[-1,3]],[[2509,4603],[41,17]],[[2573,5081],[-12,5]],[[2561,5086],[-44,15],[-8,-28],[43,-19],[9,32]],[[2519,5002],[-8,4],[-1,7],[1,5]],[[2511,5018],[6,16],[14,13],[7,1],[8,-3],[15,-8]],[[2510,4836],[1,13],[1,6],[1,6],[2,15],[2,7],[1,4],[2,4],[2,7],[4,13],[2,5]],[[2528,4916],[2,7],[3,8],[2,8]],[[2535,4939],[4,15]],[[2539,4954],[2,14],[4,14],[2,8],[14,47]],[[2561,5037],[3,7]],[[2564,5044],[9,31],[0,6]],[[2573,5081],[9,36]],[[2513,4815],[-1,-4],[-1,-2],[0,-1],[0,-2],[0,-2],[0,-2],[1,-11],[1,-11]],[[2513,4780],[1,-3]],[[2514,4777],[1,-8],[7,-31],[8,-28]],[[2530,4710],[9,-42],[13,-36],[4,-10]],[[2552,4614],[-5,-2],[-34,-14]],[[2514,4777],[6,2]],[[2697,4750],[-27,11]],[[2670,4761],[-124,47]],[[2546,4808],[-30,11]],[[2518,4827],[4,-3],[2,-1],[22,-8]],[[2546,4815],[105,-39]],[[2651,4776],[9,-4]],[[2660,4772],[11,-4]],[[2671,4768],[28,-10]],[[2664,4738],[-30,-8]],[[2634,4730],[-38,-12]],[[2596,4718],[-22,-6],[-9,-1],[-2,4],[-3,11]],[[2560,4726],[-5,16],[-1,2],[0,3],[3,17],[2,11],[0,2],[0,3],[0,3],[-1,2],[-1,3],[-1,3],[-2,2],[-1,2],[-2,1],[-3,2],[-4,2]],[[2544,4800],[-2,1],[-3,1],[-3,-1],[-2,0],[-2,-1],[-2,-1],[-3,-2],[-2,-2],[-2,-3],[-1,-2],[-1,-2],[-1,-3],[0,-2],[0,-3],[0,-1]],[[2520,4779],[0,-3],[0,-3],[6,-21],[6,-22],[4,-14]],[[2521,4557],[30,-8],[36,-5]],[[2525,4707],[5,3]],[[2530,4710],[6,6]],[[2536,4716],[24,10]],[[2528,4916],[7,0],[6,-1],[6,-2],[5,-1]],[[2552,4912],[1,0],[6,-3]],[[2559,4909],[4,-1]],[[2532,4826],[3,14],[7,-3]],[[2536,4716],[13,-53],[8,-27],[3,-4]],[[2537,4843],[0,3],[0,1],[14,60]],[[2549,4834],[-6,2],[-1,1]],[[2542,4837],[0,1],[1,3]],[[2543,4841],[-6,2]],[[2624,5008],[-6,-19],[0,-17],[-6,-20],[-8,-10]],[[2604,4942],[-3,3],[-62,9]],[[2539,4823],[3,14]],[[2543,4841],[1,2],[4,18],[11,44]],[[2546,4808],[-2,-8]],[[2546,4815],[3,19]],[[2549,4834],[7,31],[8,30],[1,2],[1,1],[2,2],[12,8],[4,2]],[[2584,4910],[5,3],[5,3],[2,0],[2,1],[2,-1]],[[2600,4916],[27,-9],[15,-6],[12,-5],[2,-1]],[[2656,4895],[3,0],[3,0],[6,-2],[7,-3]],[[2675,4890],[8,-2]],[[2683,4888],[-4,-8]],[[2679,4880],[-1,-2]],[[2678,4878],[-2,-3],[-1,-3]],[[2675,4872],[-1,-2]],[[2674,4870],[-1,-3],[-1,-4]],[[2552,4614],[-2,6]],[[2550,4620],[6,2]],[[2552,4912],[-1,-5]],[[2562,4590],[-10,24]],[[2559,4616],[-7,-2]],[[2556,4622],[3,-6]],[[2556,4622],[4,10]],[[2556,4622],[11,4],[39,15],[10,3]],[[2616,4644],[59,11]],[[2675,4655],[19,4],[24,4]],[[2718,4663],[17,3]],[[2735,4666],[40,6]],[[2775,4672],[60,15],[13,2]],[[2559,4905],[1,0],[4,-1],[3,5],[3,0],[13,4],[1,-3]],[[2559,4909],[0,-4]],[[2559,4616],[7,-14]],[[2571,4619],[-12,-3]],[[2613,4652],[-48,-20],[-5,0]],[[2571,4479],[5,-16],[-1,-6],[-1,-1]],[[2587,4544],[-25,46]],[[2564,5044],[27,-11],[24,-22]],[[2615,5011],[9,-3]],[[2624,5008],[24,-10]],[[2648,4998],[59,-23]],[[2707,4975],[35,-14],[22,-9],[4,0]],[[2768,4952],[3,0],[15,-7],[39,-19]],[[2825,4926],[17,-8]],[[2842,4918],[38,-16]],[[2566,4602],[26,-13],[30,-9],[39,-6],[80,-2]],[[2566,4602],[9,-18]],[[2848,4689],[-12,-6],[-70,-17],[-31,-6]],[[2735,4660],[-21,-4],[-5,0],[-15,-4],[-20,-4],[-20,-3]],[[2654,4645],[-37,-7],[-46,-19]],[[2575,4584],[19,-40]],[[2592,4458],[-1,-2]],[[2592,4458],[5,28],[2,11]],[[2599,4497],[-1,14],[-3,11],[-4,12],[-4,10]],[[2587,4544],[4,-1],[4,-2]],[[2595,4541],[4,0]],[[2599,4541],[9,-28],[-2,-16],[12,-3],[1,-3]],[[2594,4544],[-7,0]],[[2622,5040],[-6,3]],[[2616,5043],[-22,8],[-7,-1]],[[2594,4544],[1,-3]],[[2595,4541],[2,-3]],[[2597,4538],[4,-12],[3,-15],[1,-17]],[[2605,4494],[-2,-14]],[[2603,4480],[-11,-22]],[[2739,4557],[-51,-12],[-46,-2],[-41,1]],[[2601,4544],[-7,0]],[[2596,4718],[17,-66]],[[2601,4544],[-2,-3]],[[2599,4541],[-2,-3]],[[2599,4497],[6,-3]],[[2605,4494],[14,-3]],[[2724,4904],[-8,3],[-4,2],[-14,3]],[[2698,4912],[-3,1],[-3,1],[-2,0]],[[2690,4914],[-1,0],[-4,0],[-4,0]],[[2681,4914],[-9,0]],[[2672,4914],[-9,0]],[[2663,4914],[-8,-1]],[[2655,4913],[-9,0]],[[2646,4913],[-6,0],[-2,0],[-18,3],[-11,1],[-4,1],[-2,-1],[-3,-1]],[[2816,5090],[-2,9],[-6,6]],[[2808,5105],[-23,12]],[[2610,4475],[-7,5]],[[2604,4942],[4,-11],[3,-3],[10,-4]],[[2617,4456],[-7,19]],[[2614,5117],[0,-4],[-3,0],[-1,-4]],[[2613,4652],[3,-8]],[[2615,5011],[6,25]],[[2621,5036],[1,4]],[[2622,5040],[3,14],[1,1],[2,10]],[[2628,5065],[3,10]],[[2631,5075],[8,29]],[[2639,5104],[3,13]],[[2638,5117],[-19,-68],[-3,-6]],[[2639,5104],[-20,0],[1,-26],[8,-13]],[[2619,4491],[22,14],[27,15],[24,4],[42,2]],[[2621,5036],[32,-12]],[[2653,5024],[14,-5]],[[2634,4456],[8,15],[17,3],[74,0]],[[2725,5030],[-33,17]],[[2692,5047],[-29,13]],[[2663,5060],[-32,15]],[[2634,4730],[3,-19],[2,-13],[6,-8],[10,2],[17,5],[14,5]],[[2646,4913],[-2,-8]],[[2653,5024],[-5,-26]],[[2687,5117],[23,-12]],[[2710,5105],[33,-14]],[[2656,4895],[4,-3],[2,-2],[2,-2],[2,-3],[1,-3],[2,-4],[1,-3],[1,-3],[1,-6],[0,-3]],[[2672,4863],[0,-3],[-1,-3],[0,-3]],[[2671,4854],[-6,-23],[-9,-34]],[[2656,4797],[-1,-7],[-4,-14]],[[2907,5044],[0,10]],[[2907,5054],[0,8],[7,31]],[[2914,5093],[5,20]],[[2919,5113],[1,4]],[[2655,4913],[-3,-11]],[[2654,4645],[1,-30]],[[2656,4797],[6,-3]],[[2658,4781],[4,13]],[[2662,4794],[16,50]],[[2663,4914],[-3,-15]],[[2660,4772],[2,5],[21,66],[-4,2]],[[2678,5117],[-15,-57]],[[2664,4738],[6,23]],[[2670,4761],[1,7]],[[2697,4750],[-33,-12]],[[2667,4832],[4,14]],[[2672,4914],[-4,-18]],[[2675,4872],[-2,5],[-4,11]],[[2671,4854],[7,-2]],[[2677,4846],[-3,1],[-1,0],[-1,0],[0,-1],[-1,0]],[[2683,4888],[8,-5]],[[2691,4883],[-3,-9]],[[2688,4874],[-3,-10]],[[2685,4864],[-11,6]],[[2675,4890],[4,-10]],[[2675,4655],[11,47]],[[2686,4702],[11,48]],[[2681,4914],[-5,-21]],[[2685,4864],[-1,-7],[-4,1],[-2,-6]],[[2678,4852],[-1,-6]],[[2677,4846],[2,-1]],[[2679,4845],[-1,-1]],[[2678,4878],[10,-4]],[[2689,4848],[-3,1],[-8,3]],[[2683,4888],[1,2],[1,3]],[[2685,4893],[1,1],[3,3],[1,1]],[[2690,4898],[1,1],[2,1],[2,1],[1,1]],[[2696,4902],[2,0],[5,1],[3,0]],[[2706,4903],[18,1]],[[2690,4914],[-5,-21]],[[2689,4848],[32,-16]],[[2689,4848],[11,34]],[[2690,4898],[4,-8]],[[2691,4883],[3,7]],[[2694,4890],[1,1],[3,1]],[[2698,4892],[3,1],[4,2],[1,2],[0,6]],[[2713,5117],[-3,-12]],[[2710,5105],[-18,-58]],[[2696,4902],[2,10]],[[2733,4741],[-2,-1],[-17,5]],[[2714,4745],[-17,5]],[[2697,4750],[2,8]],[[2705,4888],[-7,4]],[[2739,4561],[-40,-6]],[[2895,4572],[-89,-4],[-67,-11]],[[2739,4557],[-40,-2]],[[2714,4745],[-15,-67]],[[2699,4758],[33,-15],[1,-2]],[[2699,4758],[22,74]],[[2721,4832],[15,26]],[[2736,4858],[8,23]],[[2744,4881],[6,19]],[[2750,4900],[5,12]],[[2755,4912],[13,40]],[[2768,4952],[6,19],[7,21]],[[2781,4992],[3,8]],[[2784,5000],[9,26]],[[2793,5026],[8,25]],[[2801,5051],[11,34],[4,5]],[[2736,4642],[-15,-4],[-7,-6],[-9,-1]],[[2750,5117],[-7,-26]],[[2743,5091],[-18,-61]],[[2725,5030],[-5,-16],[-9,-24],[-4,-15]],[[2718,4663],[7,35]],[[2725,4698],[8,43]],[[2733,4741],[14,73]],[[2729,4540],[-1,3],[-1,1],[-2,1],[-3,-1],[-1,-2],[0,-3],[1,-3],[1,-1],[3,0],[2,0],[1,2],[1,3]],[[2721,4832],[26,-18]],[[2747,4814],[10,-6],[10,-7]],[[2767,4801],[50,-29]],[[2817,4772],[42,6]],[[2724,4904],[2,7]],[[2725,4698],[48,8]],[[2773,4706],[32,8]],[[2784,5000],[-20,10]],[[2764,5010],[-39,20]],[[2726,4911],[24,-11]],[[2734,4531],[-4,0],[-1,3],[0,6]],[[2730,4540],[3,51]],[[2734,4586],[-1,4],[0,7],[0,12],[0,5],[2,4]],[[2734,4526],[-1,-52]],[[2733,4474],[0,-18]],[[2733,4591],[1,3],[1,2],[2,1],[2,-1],[2,-2],[1,-2],[0,-2],[-1,-2],[-1,-2],[-2,-1],[-2,1],[-2,0]],[[2848,4689],[-7,11],[-36,14]],[[2805,4714],[-72,27]],[[2734,4526],[52,-9]],[[2786,4517],[38,-1]],[[2824,4516],[28,-3]],[[2852,4513],[8,-1]],[[2734,4543],[0,-17]],[[2735,4666],[0,-6]],[[2735,4660],[1,-18]],[[2736,4642],[-1,-24]],[[2735,4618],[0,-8],[1,-4]],[[2736,4858],[45,-39],[31,-14]],[[2736,4606],[3,-1],[24,4],[88,17]],[[2851,4626],[48,16]],[[2899,4642],[37,12]],[[2936,4654],[42,17]],[[3098,4651],[-3,-1],[-13,-2],[-9,-3],[-12,-4],[-12,-5],[-5,-2],[-11,-5],[-15,-8],[-12,-6],[-12,-6],[-7,-4],[-5,-2],[-15,-7],[-9,-3],[-8,-3],[-18,-6],[-9,-2],[-9,-2],[-14,-2],[-12,-2],[-16,-1],[-14,-1],[-13,-1],[-9,0],[-9,0],[-9,0],[-8,-1],[-10,-1],[-9,-2],[-7,-1],[-10,-2],[-35,-5]],[[2808,5105],[5,12]],[[2741,4572],[39,7]],[[2744,4881],[13,-6],[22,-10],[12,-5],[15,-7]],[[2806,4853],[38,-17],[23,-9]],[[2764,5010],[-16,-47]],[[2755,4912],[8,-7],[1,0]],[[2764,4905],[40,-4],[0,-10],[-41,4],[1,10]],[[2801,5051],[-45,24]],[[2767,4801],[-7,-24],[21,-8],[7,-18],[14,-8],[14,7],[1,22]],[[2773,4706],[2,-34]],[[2780,4579],[29,7],[4,0],[4,0],[6,1],[9,0],[11,0],[9,0],[3,0],[5,1],[5,0],[6,0],[6,1],[7,0],[7,1],[4,1],[5,1],[5,1],[5,1],[6,2],[7,2],[6,3],[6,3],[6,2],[4,3],[6,3],[5,3],[6,5],[8,5],[7,6],[5,3],[6,4],[5,4],[5,4],[6,4],[6,4],[5,4],[5,3],[4,3],[7,4],[10,5],[4,2],[4,2],[4,1],[4,2],[4,1],[5,2],[5,1],[4,1],[4,1],[6,1],[6,1],[5,1],[2,0]],[[2780,4579],[29,3],[7,1],[6,0],[3,0],[6,1],[4,0],[5,0],[4,0],[6,0],[5,0],[7,0],[8,0],[8,0],[6,1],[6,0],[6,1],[5,0],[4,1],[4,0],[4,1],[5,1],[6,1],[3,1],[5,1],[4,2],[7,1],[7,3],[5,2],[5,2],[5,2],[5,2],[6,3],[20,10],[6,3],[4,2],[5,3],[5,2],[4,2],[4,2],[5,3],[3,1],[3,2],[4,1],[2,1],[4,2],[3,1],[4,2],[3,1],[2,1],[3,1],[3,1],[3,1],[2,1],[3,1],[3,1],[4,1],[4,1],[4,0],[3,1],[2,0],[3,1],[3,0],[1,1]],[[2793,5026],[13,-8],[-9,-28],[-2,-1],[-1,-1],[-1,0],[-2,0],[-3,1],[-7,3]],[[2786,4517],[0,-61]],[[2806,4853],[19,73]],[[2825,4926],[17,67],[19,80]],[[2861,5073],[8,40]],[[2907,5054],[-46,19]],[[2861,5073],[-28,12]],[[2833,5085],[-10,5],[-7,0]],[[2824,4516],[1,-60]],[[2853,5117],[-2,-3],[-13,-19],[-5,-10]],[[2857,4971],[-15,-53]],[[2848,4689],[3,-63]],[[2848,4703],[0,-6],[0,-8]],[[2848,4689],[7,2],[31,11]],[[2886,4702],[7,3]],[[2893,4705],[8,2]],[[2901,4707],[44,16]],[[2945,4723],[24,9]],[[2969,4732],[28,9]],[[2997,4741],[56,12],[32,6]],[[3085,4759],[13,2]],[[2849,4709],[-1,-6]],[[2848,4703],[14,-5],[30,10],[1,-3]],[[2862,4796],[-3,-18]],[[2859,4778],[-10,-69]],[[2852,4493],[-1,-24],[5,-1],[3,24],[-7,1]],[[2852,4513],[0,-20]],[[2860,4512],[2,21]],[[2880,4902],[-4,-22]],[[2876,4880],[-9,-53]],[[2867,4827],[-3,-19]],[[2864,4808],[-2,-12]],[[2915,4794],[-51,14]],[[2909,5117],[10,-4]],[[2869,5113],[40,-17]],[[2876,4880],[37,-4]],[[2913,4876],[12,-1]],[[2925,4875],[41,-3]],[[2966,4872],[33,-3]],[[2999,4869],[84,-9]],[[2906,4730],[-27,6],[-3,11],[1,5]],[[2900,5016],[-2,-6],[-18,-108]],[[2885,4823],[2,11],[2,10],[0,5],[5,2],[2,-1],[6,-1],[3,-3],[-1,-6],[-2,-6],[0,-5],[1,-4],[-1,-4],[-4,-1],[-5,3],[-4,0],[-3,-1],[-1,1]],[[2886,4702],[13,-60]],[[2899,4642],[-3,-28]],[[2895,4916],[20,-1]],[[2915,4915],[19,-1]],[[3098,4631],[-4,-1],[-4,-1],[-5,-2],[-4,-1],[-4,-2],[-4,-1],[-12,-5],[-12,-5],[-9,-5],[-7,-3],[-5,-2],[-4,-2],[-4,-1],[-6,-3],[-5,-2],[-8,-3],[-14,-4],[-4,-1],[-10,-3],[-6,-2]],[[2967,4582],[-7,-1],[-7,-2],[-5,-1],[-5,-1],[-7,-1],[-8,-1],[-5,0],[-7,-1],[-5,-1],[-5,0],[-6,0],[-5,-1]],[[2896,4614],[12,0],[17,6]],[[2900,5016],[-1,3],[0,3]],[[2899,5022],[0,7],[2,5],[2,2],[1,3]],[[2904,5039],[1,7],[2,8]],[[2903,5016],[-1,2]],[[2902,5018],[-1,2]],[[2901,5020],[-2,2]],[[2925,5010],[-6,-1],[-4,3]],[[2915,5012],[-8,4],[-4,0]],[[2903,5016],[-3,0]],[[2900,5016],[1,4]],[[2901,5020],[1,3]],[[2904,5021],[-2,-3]],[[2902,5018],[-2,-2]],[[2901,4707],[5,23]],[[2906,4730],[9,64]],[[2915,4794],[6,43]],[[2921,4837],[4,26],[0,12]],[[2906,5033],[3,0]],[[2909,5033],[2,-2],[1,-3],[0,-2]],[[2912,5026],[-2,-4],[-1,-1],[-2,-1]],[[2907,5020],[-3,1]],[[2904,5021],[-1,1],[-1,1]],[[2902,5023],[-1,4],[1,3],[2,2],[2,1]],[[2904,5039],[3,-1]],[[2907,5038],[1,0]],[[2908,5038],[3,1]],[[2906,5033],[1,5]],[[2907,5038],[0,6]],[[2907,5054],[3,-7],[1,-8]],[[2911,5039],[3,-8],[2,-6],[2,-3]],[[2918,5022],[5,-6],[2,-6]],[[2923,4502],[-16,4]],[[2925,5010],[-9,5]],[[2916,5015],[-9,5]],[[2907,5044],[1,-6]],[[2908,5038],[1,-5]],[[2909,5096],[5,-3]],[[2912,5026],[5,-6]],[[2917,5020],[8,-10]],[[2942,4456],[2,15],[3,17],[2,14],[2,9],[2,10],[2,11],[2,11],[1,8],[2,8],[2,5],[2,6],[1,5],[2,7]],[[2967,4582],[3,5],[3,6],[3,5],[5,10]],[[2915,4915],[-2,-39]],[[2918,5022],[-1,-2]],[[2917,5020],[-1,-5]],[[2916,5015],[-1,-3]],[[2915,4794],[39,-10]],[[2954,4784],[14,-3],[26,-18]],[[3031,4617],[-4,-2],[-5,-3],[-4,-3],[-3,-2],[-4,-3],[-4,-3],[-3,-3],[-4,-3],[-4,-4],[-3,-3],[-3,-3],[-2,-3],[-3,-4],[-3,-4],[-3,-4],[-2,-4],[-2,-3],[-2,-3],[-1,-3],[-2,-4],[-2,-4],[-2,-4],[-1,-5],[-2,-4],[-2,-6],[-1,-2],[-1,-4],[-1,-6],[-1,-4],[-2,-8],[-1,-5],[-2,-11],[-2,-13],[-1,-9],[-1,-3],[-1,-6],[0,-3]],[[2923,4502],[-5,-46]],[[3082,4815],[-86,6]],[[2996,4821],[-20,4],[-16,2]],[[2960,4827],[-39,10]],[[2925,4501],[-2,1]],[[2926,4607],[-1,13]],[[2925,4620],[17,8]],[[2942,4628],[17,10],[15,10],[1,7]],[[2975,4655],[3,16]],[[2975,4493],[-5,0]],[[2970,4493],[-45,8]],[[2925,4501],[7,60],[-6,46]],[[3014,4985],[-12,-1],[-10,1],[-10,1],[-6,2]],[[2976,4988],[-6,1],[-8,3]],[[2962,4992],[-28,12],[-9,6]],[[3053,4607],[-5,-2],[-4,-2],[-5,-3],[-6,-3],[-6,-3],[-5,-3],[-5,-3],[-4,-4],[-6,-4],[-3,-3],[-3,-3],[-2,-2],[-3,-3],[-5,-6],[-4,-6],[-4,-6],[-5,-7],[-4,-7],[-2,-5],[-2,-3],[-2,-5],[-2,-5],[-2,-5],[-2,-4],[-1,-3],[-1,-4],[-2,-5],[-1,-4],[-1,-4],[-1,-5],[-2,-8],[-1,-4],[-3,-17]],[[2936,4635],[6,-7]],[[2936,4654],[0,-19]],[[2941,4456],[6,35],[2,17],[6,36],[4,17],[5,16],[4,12],[7,15],[7,11],[4,5],[2,4],[3,3],[3,3],[2,3],[2,2],[3,2],[2,2],[2,2],[2,3],[3,2],[3,3],[3,2],[3,2],[2,1],[2,2],[3,1],[2,2],[3,2],[2,1],[4,2],[3,2],[2,1],[4,1],[3,2],[3,1],[3,1],[3,1],[3,1],[3,1],[4,0],[4,2],[3,0],[5,1],[5,1],[3,0],[4,1],[3,0],[3,1]],[[2947,4730],[-2,-7]],[[2966,4872],[-6,-45]],[[2960,4827],[-6,-43]],[[2954,4784],[-7,-54]],[[2962,4992],[22,-13],[31,-15],[12,-2]],[[2969,4732],[7,-33]],[[2976,4699],[5,-26]],[[2975,4519],[-5,-26]],[[2976,4988],[-5,-35]],[[2987,4456],[-6,14]],[[2981,4470],[-4,13],[-2,10]],[[2977,4533],[-2,-14]],[[2975,4655],[6,-3],[5,-4],[27,20],[27,13],[21,7],[17,3],[20,3]],[[2976,4699],[60,18],[57,10]],[[3093,4727],[5,1]],[[3029,4584],[-6,1],[-8,-6],[-6,-5],[-11,-10],[-13,-16],[-6,-9],[-2,-6]],[[2978,4671],[3,2]],[[2981,4673],[27,7],[24,6],[64,16]],[[3098,4465],[-16,5],[-36,1],[-25,1],[-19,4],[-6,2],[-5,-1],[-10,-7]],[[2981,4608],[4,5],[2,4],[4,4],[4,4],[3,4],[3,3],[3,3],[4,3],[4,3],[5,3],[4,3],[4,2],[4,3],[5,2],[4,2],[5,2],[5,2],[5,2],[6,2],[4,1],[7,2],[9,2],[8,1],[8,1],[3,1]],[[2999,4869],[-3,-48]],[[2996,4821],[-1,-32]],[[2995,4789],[-1,-26]],[[2994,4763],[2,-14]],[[2995,4789],[15,2],[3,1],[4,7],[65,-4]],[[2996,4749],[1,-8]],[[3081,4765],[-15,0],[-18,5],[-16,-2],[-11,-5],[-16,-12],[-9,-2]],[[3057,4999],[-3,9],[-3,4],[-11,5]],[[3040,5017],[-11,6],[-21,4]],[[3098,4930],[-71,32]],[[3027,4962],[-7,5],[-3,5],[-1,4],[-2,9]],[[3098,5034],[-5,-5],[-14,-14],[-5,-5]],[[3074,5010],[-17,-11]],[[3057,4999],[-12,-6],[-19,-6],[-12,-2]],[[3098,4597],[-11,-1]],[[3087,4596],[-47,-7],[-11,-5]],[[3029,4584],[-10,-8]],[[3098,4640],[-5,-1],[-6,-1],[-5,-2],[-5,-1],[-4,-1],[-5,-2],[-5,-2],[-5,-1],[-6,-3],[-7,-3],[-5,-2],[-5,-2],[-4,-2]],[[3040,5017],[9,23]],[[3049,5040],[2,8]],[[3051,5048],[21,62]],[[3072,5110],[-5,2]],[[3049,5040],[6,-4]],[[3055,5036],[8,-4]],[[3063,5032],[9,-5]],[[3051,5048],[8,-4]],[[3059,5044],[21,-11],[8,8]],[[3088,5041],[9,7]],[[3097,5048],[1,1]],[[3098,5073],[-7,3]],[[3091,5076],[-18,9]],[[3052,5027],[3,9]],[[3098,4622],[-8,-2],[-8,-3],[-2,-1],[-3,-1],[-4,-1],[-5,-2],[-3,-1],[-4,-1],[-5,-2],[-3,-1]],[[3059,5044],[3,11]],[[3062,5055],[4,10]],[[3066,5065],[3,10]],[[3069,5075],[4,10]],[[3073,5085],[3,10]],[[3076,5095],[4,11]],[[3080,5106],[3,9],[0,2]],[[3083,5117],[1,0]],[[3098,5097],[-1,1]],[[3097,5098],[-3,-10]],[[3094,5088],[-3,-12]],[[3061,5024],[2,8]],[[3062,5055],[26,-14]],[[3066,5065],[31,-17]],[[3069,5075],[29,-14]],[[3087,4596],[7,-69]],[[3094,4527],[1,-13],[-23,4],[0,5],[22,4]],[[3072,5110],[3,7]],[[3074,5010],[3,-4],[14,-22],[7,2]],[[3098,5086],[-4,2]],[[3094,5088],[-18,7]],[[3097,5098],[-17,8]],[[3090,4750],[-5,9]],[[3085,4759],[-4,6]],[[3083,4860],[-1,-45]],[[3082,4815],[0,-20]],[[3082,4795],[-1,-30]],[[3083,4860],[15,-1]],[[3083,5117],[15,-8]],[[3096,4702],[-3,25]],[[3093,4727],[-3,23]],[[3096,4702],[2,0]],[[2549,4819],[1,15],[4,2],[15,61],[23,15],[9,3],[55,-22],[3,-2],[4,-4],[2,-4],[4,-8],[1,-5],[0,-7],[-13,-59],[-8,-23],[-18,7],[-82,31]],[[4588,4770],[-180,121],[-192,114],[-190,38],[-173,-14],[-172,10],[-219,63],[-427,209],[-179,189],[-242,132],[-355,220],[-522,57],[-156,64],[-153,122],[-413,333]],[[163,7194],[-161,78]],[[6228,3406],[-23,-9]],[[6063,3511],[-32,47]],[[6029,3562],[0,53]],[[6030,3636],[22,59]],[[6163,3864],[1,12],[-8,14]],[[6137,3923],[-5,9],[-134,186],[-59,86]],[[5932,4213],[-16,24],[-19,12]],[[5895,4250],[-15,10],[-13,-4]],[[5842,4249],[-2,0],[-1,-3]],[[5833,4235],[-18,-37],[-1,-16]],[[5808,4131],[0,-3],[1,-2]],[[5835,4063],[1,-5],[7,-4]],[[5872,4034],[17,-11],[33,-42]],[[5927,3968],[4,-34]],[[5931,3914],[-10,-37]],[[5908,3851],[-13,-17]],[[5568,3711],[-17,-10],[-30,-37]],[[5514,3655],[-29,-35],[-14,-23]],[[5361,3493],[-5,2]],[[5333,3515],[-18,26]],[[5298,3576],[-12,59]],[[5286,3635],[24,124],[12,63],[-12,59],[-77,64],[-57,49],[-92,104],[-48,24],[-92,-1],[-16,1],[-74,4],[-54,20],[-32,36],[-14,34],[10,58],[21,52],[35,55],[34,58],[5,42],[-18,41],[-27,27],[-35,36],[-50,58],[-54,43],[-31,27],[-56,57]],[[7098,2996],[-19,-15]],[[6977,2895],[0,-1],[-66,-59]],[[6884,2817],[-32,-5]],[[6843,2814],[-26,9]],[[6795,2841],[-29,46]],[[6757,2911],[-13,76]],[[6739,3013],[-3,20],[-8,50],[-1,44],[-23,55],[-7,22],[-14,52],[-13,34],[-7,90],[0,91],[-1,12]],[[6643,3621],[-1,3],[-2,3]],[[6565,3688],[-8,5],[-68,30],[-8,2]],[[6423,3742],[-7,2],[-7,-5]],[[6284,3572],[-1,-9],[8,-75]],[[6289,3475],[-8,-28]],[[7120,3018],[-22,-22]],[[8821,3378],[-9,-6],[-25,-34],[-30,-48],[-17,-58],[-2,-35],[6,-41]],[[8744,3153],[1,-8],[30,-55],[15,-33],[2,-26],[-6,-15],[-15,-11]],[[8574,3146],[-25,38],[-25,14]],[[8218,3484],[-4,3],[-2,1]],[[7977,3364],[-37,-20]],[[7830,3286],[-6,-3],[-67,-68]],[[7728,3189],[-77,-29]],[[7586,3169],[-6,1],[-20,-2]],[[7536,3164],[-8,-1],[-19,-3],[-1,0]],[[7398,3145],[-2,-1],[-18,-2]],[[7351,3138],[-35,-4],[-43,-14],[-62,-38],[-26,-19]],[[7184,3063],[-64,-45]]]}